{"type":"FeatureCollection","features":[{"type":"Feature","geometry":{"type":"LineString","coordinates":[[-109.6,19.6],[-110.1,19.7],[-110.8,19.8],[-111.5,20.0],[-112.5,20.1],[-113.6,20.3],[-114.7,20.4],[-117.2,20.5],[-120.3,20.6]]},"properties":{"stormname":"Rachel","stormtype":"HU","basin":"EP","advisnum":"18","stormnum":18,"binnumber":"EP3"}},{"type":"Feature","geometry":{"type":"LineString","coordinates":[[-123.3,15.2],[-121.4,15.1]]},"properties":{"stormname":"Nineteen-E","stormtype":"TD","basin":"EP","advisnum":"9","stormnum":19,"binnumber":"EP4"}},{"type":"Feature","geometry":{"type":"MultiLineString","coordinates":[[[-165.4,22.0],[-166.0,22.3],[-166.9,22.9],[-168.2,23.1],[-170.5,22.9],[-173.8,23.0],[-177.4,23.4],[-180.0,24.05]],[[180.0,24.05],[176.2,25.0],[169.0,25.8]]]},"properties":{"stormname":"Nolo","stormtype":"TS","basin":"EP","advisnum":"44A","stormnum":15,"binnumber":"CP2"}}]}