{"type":"FeatureCollection","features":[{"type":"Feature","geometry":{"type":"LineString","coordinates":[[-92.6,9.2],[-93.6,10.2],[-94.6,11.2],[-95.6,11.2],[-96.1,11.3],[-96.7,11.4],[-97.3,11.7],[-97.6,11.9],[-97.9,12.2],[-98.1,12.4]]},"properties":{"stormtype":"DB","stormnum":18,"binnumber":"EP3","ss":0}},{"type":"Feature","geometry":{"type":"LineString","coordinates":[[-98.1,12.4],[-98.4,12.6],[-98.9,12.7]]},"properties":{"stormtype":"TD","stormnum":18,"binnumber":"EP3","ss":0}},{"type":"Feature","geometry":{"type":"LineString","coordinates":[[-98.9,12.7],[-99.5,12.8],[-100.2,13.1],[-100.8,13.6],[-101.6,13.9],[-102.7,14.2],[-103.8,14.5],[-104.4,15.1],[-105.4,15.8],[-106.3,16.6],[-106.9,17.3]]},"properties":{"stormtype":"TS","stormnum":18,"binnumber":"EP3","ss":0}},{"type":"Feature","geometry":{"type":"LineString","coordinates":[[-106.9,17.3],[-107.5,17.8],[-107.8,18.4],[-108.3,19.0],[-108.9,19.3],[-109.5,19.5]]},"properties":{"stormtype":"HU","stormnum":18,"binnumber":"EP3","ss":1}},{"type":"Feature","geometry":{"type":"LineString","coordinates":[[-106.9,17.3],[-107.5,17.8],[-107.8,18.4],[-108.3,19.0],[-108.9,19.3],[-109.5,19.5]]},"properties":{"stormtype":"HU","stormnum":18,"binnumber":"EP3","ss":1}},{"type":"Feature","geometry":{"type":"LineString","coordinates":[[-108.5,10.5],[-109.5,11.1],[-110.5,11.6],[-111.4,11.9],[-112.2,12.3],[-113.1,12.9],[-113.7,13.7],[-113.8,14.8],[-113.8,16.1]]},"properties":{"stormtype":"DB","stormnum":15,"binnumber":"CP2","ss":0}},{"type":"Feature","geometry":{"type":"LineString","coordinates":[[-113.8,16.1],[-114.3,16.8],[-114.9,17.2],[-115.6,17.4],[-116.2,17.4],[-116.8,17.3]]},"properties":{"stormtype":"LO","stormnum":15,"binnumber":"CP2","ss":0}},{"type":"Feature","geometry":{"type":"LineString","coordinates":[[-116.8,17.3],[-117.9,17.1],[-118.5,16.6],[-119.3,16.3],[-120.0,16.9],[-121.1,16.5],[-122.1,16.2],[-123.4,16.1],[-124.4,15.8],[-125.3,15.6]]},"properties":{"stormtype":"TD","stormnum":15,"binnumber":"CP2","ss":0}},{"type":"Feature","geometry":{"type":"LineString","coordinates":[[-125.3,15.6],[-126.5,15.4]]},"properties":{"stormtype":"DB","stormnum":15,"binnumber":"CP2","ss":0}},{"type":"Feature","geometry":{"type":"LineString","coordinates":[[-126.5,15.4],[-127.7,15.2],[-128.7,14.9],[-129.8,14.7],[-130.7,14.7],[-131.6,14.8],[-132.5,15.4],[-133.9,15.5],[-135.2,15.0],[-136.0,15.5]]},"properties":{"stormtype":"LO","stormnum":15,"binnumber":"CP2","ss":0}},{"type":"Feature","geometry":{"type":"LineString","coordinates":[[-136.0,15.5],[-136.7,16.0],[-137.6,16.4],[-138.6,16.5],[-139.7,16.6],[-140.5,16.1],[-141.5,15.3],[-146.3,13.2],[-146.8,13.2],[-147.6,13.1],[-149.0,13.0],[-150.7,13.0],[-152.4,13.3],[-153.4,13.9]]},"properties":{"stormtype":"DB","stormnum":15,"binnumber":"CP2","ss":0}},{"type":"Feature","geometry":{"type":"LineString","coordinates":[[-153.4,13.9],[-154.3,14.3],[-155.1,14.5],[-155.8,14.6]]},"properties":{"stormtype":"TD","stormnum":15,"binnumber":"CP2","ss":0}},{"type":"Feature","geometry":{"type":"LineString","coordinates":[[-155.8,14.6],[-156.0,14.6],[-156.2,14.6],[-156.2,14.7],[-156.0,14.9],[-155.8,15.2]]},"properties":{"stormtype":"TS","stormnum":15,"binnumber":"CP2","ss":0}},{"type":"Feature","geometry":{"type":"LineString","coordinates":[[-155.8,15.2],[-155.5,15.7],[-155.4,16.3]]},"properties":{"stormtype":"HU","stormnum":15,"binnumber":"CP2","ss":1}},{"type":"Feature","geometry":{"type":"LineString","coordinates":[[-155.4,16.3],[-155.3,16.7],[-155.2,16.9],[-155.3,16.9],[-155.7,16.8],[-156.1,16.7]]},"properties":{"stormtype":"HU","stormnum":15,"binnumber":"CP2","ss":2}},{"type":"Feature","geometry":{"type":"LineString","coordinates":[[-156.1,16.7],[-156.9,16.6]]},"properties":{"stormtype":"HU","stormnum":15,"binnumber":"CP2","ss":1}},{"type":"Feature","geometry":{"type":"LineString","coordinates":[[-156.9,16.6],[-157.8,16.2],[-158.8,16.1]]},"properties":{"stormtype":"HU","stormnum":15,"binnumber":"CP2","ss":2}},{"type":"Feature","geometry":{"type":"LineString","coordinates":[[-158.8,16.1],[-159.8,16.2]]},"properties":{"stormtype":"HU","stormnum":15,"binnumber":"CP2","ss":3}},{"type":"Feature","geometry":{"type":"LineString","coordinates":[[-159.8,16.2],[-160.8,16.4],[-161.9,16.8],[-162.7,17.3],[-163.5,18.3],[-164.2,19.5]]},"properties":{"stormtype":"HU","stormnum":15,"binnumber":"CP2","ss":4}},{"type":"Feature","geometry":{"type":"LineString","coordinates":[[-164.2,19.5],[-164.2,20.1],[-164.2,21.0]]},"properties":{"stormtype":"HU","stormnum":15,"binnumber":"CP2","ss":3}},{"type":"Feature","geometry":{"type":"LineString","coordinates":[[-164.2,21.0],[-164.2,21.8]]},"properties":{"stormtype":"HU","stormnum":15,"binnumber":"CP2","ss":2}},{"type":"Feature","geometry":{"type":"LineString","coordinates":[[-164.2,21.8],[-164.2,22.4],[-164.7,22.2]]},"properties":{"stormtype":"HU","stormnum":15,"binnumber":"CP2","ss":1}},{"type":"Feature","geometry":{"type":"LineString","coordinates":[[-164.7,22.2],[-164.7,21.9],[-164.7,21.6],[-165.0,21.7],[-165.3,21.8]]},"properties":{"stormtype":"HU","stormnum":15,"binnumber":"CP2","ss":1}},{"type":"Feature","geometry":{"type":"LineString","coordinates":[[-139.9,11.0],[-139.0,11.1],[-138.2,11.2],[-137.6,11.7],[-137.5,13.0],[-136.7,13.0],[-135.6,13.4],[-134.9,13.8],[-133.9,14.4],[-132.7,14.4]]},"properties":{"stormtype":"DB","stormnum":19,"binnumber":"EP4","ss":0}},{"type":"Feature","geometry":{"type":"LineString","coordinates":[[-132.7,14.4],[-132.1,14.5]]},"properties":{"stormtype":"LO","stormnum":19,"binnumber":"EP4","ss":0}},{"type":"Feature","geometry":{"type":"LineString","coordinates":[[-132.1,14.5],[-131.2,14.3],[-130.6,14.0],[-129.8,14.0],[-128.8,14.2],[-127.6,14.8],[-126.5,15.1],[-125.2,15.3],[-124.0,15.2]]},"properties":{"stormtype":"LO","stormnum":19,"binnumber":"EP4","ss":0}}]}