{"type":"FeatureCollection","features":[{"type":"Feature","geometry":{"type":"Point","coordinates":[-165.4,22.0]},"properties":{"stormname":"Tropical Storm Nolo","stormtype":"TS","basin":"EP","advisnum":"44A","maxwind":50,"gust":60,"mslp":993,"ssnum":0,"tcdvlp":"Tropical Storm","datelbl":"8:00 AM Thu","fldatelbl":"2026-10-01 5:00 AM Thu HST","validtime":"01/1500","tau":0,"stormnum":15,"binnumber":"CP2","lat":22,"lon":-165}},{"type":"Feature","geometry":{"type":"Point","coordinates":[-166.0,22.3]},"properties":{"stormname":"Tropical Storm Nolo","stormtype":"TS","basin":"EP","advisnum":"44A","maxwind":50,"gust":60,"mslp":9999,"ssnum":0,"tcdvlp":"Tropical Storm","datelbl":"2:00 PM Thu","fldatelbl":"2026-10-01 2:00 PM Thu HST","validtime":"02/0000","tau":12,"stormnum":15,"binnumber":"CP2","lat":22,"lon":-166}},{"type":"Feature","geometry":{"type":"Point","coordinates":[-123.3,15.2]},"properties":{"stormname":"Tropical Depression Nineteen-E","stormtype":"TD","basin":"EP","advisnum":"9","maxwind":25,"gust":35,"mslp":1006,"ssnum":0,"tcdvlp":"Tropical Depression","datelbl":"8:00 AM Thu","fldatelbl":"2026-10-01 5:00 AM Thu PDT","validtime":"01/1200","tau":0,"stormnum":19,"binnumber":"EP4","lat":15,"lon":-123}},{"type":"Feature","geometry":{"type":"Point","coordinates":[-121.4,15.1]},"properties":{"stormname":"Tropical Depression Nineteen-E","stormtype":"STD","basin":"EP","advisnum":"9","maxwind":25,"gust":35,"mslp":9999,"ssnum":0,"tcdvlp":"Subtropical Depression","datelbl":"5:00 PM Thu","fldatelbl":"2026-10-01 5:00 PM Thu PDT","validtime":"02/0000","tau":12,"stormnum":19,"binnumber":"EP4","lat":15,"lon":-121}},{"type":"Feature","geometry":{"type":"Point","coordinates":[-166.9,22.9]},"properties":{"stormname":"Tropical Storm Nolo","stormtype":"TS","basin":"EP","advisnum":"44A","maxwind":55,"gust":65,"mslp":9999,"ssnum":0,"tcdvlp":"Tropical Storm","datelbl":"2:00 AM Fri","fldatelbl":"2026-10-02 2:00 AM Fri HST","validtime":"02/1200","tau":24,"stormnum":15,"binnumber":"CP2","lat":23,"lon":-167}},{"type":"Feature","geometry":{"type":"Point","coordinates":[-168.2,23.1]},"properties":{"stormname":"Tropical Storm Nolo","stormtype":"TS","basin":"EP","advisnum":"44A","maxwind":60,"gust":75,"mslp":9999,"ssnum":0,"tcdvlp":"Tropical Storm","datelbl":"2:00 PM Fri","fldatelbl":"2026-10-02 2:00 PM Fri HST","validtime":"03/0000","tau":36,"stormnum":15,"binnumber":"CP2","lat":23,"lon":-168}},{"type":"Feature","geometry":{"type":"Point","coordinates":[-170.5,22.9]},"properties":{"stormname":"Tropical Storm Nolo","stormtype":"HU","basin":"EP","advisnum":"44A","maxwind":70,"gust":85,"mslp":9999,"ssnum":1,"tcdvlp":"Hurricane","datelbl":"2:00 AM Sat","fldatelbl":"2026-10-03 2:00 AM Sat HST","validtime":"03/1200","tau":48,"stormnum":15,"binnumber":"CP2","lat":23,"lon":-170}},{"type":"Feature","geometry":{"type":"Point","coordinates":[-173.8,23.0]},"properties":{"stormname":"Tropical Storm Nolo","stormtype":"HU","basin":"EP","advisnum":"44A","maxwind":85,"gust":105,"mslp":9999,"ssnum":2,"tcdvlp":"Hurricane","datelbl":"2:00 PM Sat","fldatelbl":"2026-10-03 2:00 PM Sat HST","validtime":"04/0000","tau":60,"stormnum":15,"binnumber":"CP2","lat":23,"lon":-174}},{"type":"Feature","geometry":{"type":"Point","coordinates":[-177.4,23.4]},"properties":{"stormname":"Tropical Storm Nolo","stormtype":"HU","basin":"EP","advisnum":"44A","maxwind":95,"gust":115,"mslp":9999,"ssnum":2,"tcdvlp":"Hurricane","datelbl":"2:00 AM Sun","fldatelbl":"2026-10-04 2:00 AM Sun HST","validtime":"04/1200","tau":72,"stormnum":15,"binnumber":"CP2","lat":23,"lon":-177}},{"type":"Feature","geometry":{"type":"Point","coordinates":[176.2,25.0]},"properties":{"stormname":"Tropical Storm Nolo","stormtype":"HU","basin":"EP","advisnum":"44A","maxwind":95,"gust":115,"mslp":9999,"ssnum":2,"tcdvlp":"Hurricane","datelbl":"2:00 AM Mon","fldatelbl":"2026-10-05 2:00 AM Mon HST","validtime":"05/1200","tau":96,"stormnum":15,"binnumber":"CP2","lat":25,"lon":-184}},{"type":"Feature","geometry":{"type":"Point","coordinates":[169.0,25.8]},"properties":{"stormname":"Tropical Storm Nolo","stormtype":"HU","basin":"EP","advisnum":"44A","maxwind":90,"gust":110,"mslp":9999,"ssnum":2,"tcdvlp":"Hurricane","datelbl":"2:00 AM Tue","fldatelbl":"2026-10-06 2:00 AM Tue HST","validtime":"06/1200","tau":120,"stormnum":15,"binnumber":"CP2","lat":26,"lon":-191}},{"type":"Feature","geometry":{"type":"Point","coordinates":[-109.6,19.6]},"properties":{"stormname":"Hurricane Rachel","stormtype":"HU","basin":"EP","advisnum":"18","maxwind":90,"gust":110,"mslp":964,"ssnum":2,"tcdvlp":"Hurricane","datelbl":"8:00 AM Thu","fldatelbl":"2026-10-01 5:00 AM Thu MST","validtime":"01/1200","tau":0,"stormnum":18,"binnumber":"EP3","lat":20,"lon":-110}},{"type":"Feature","geometry":{"type":"Point","coordinates":[-110.1,19.7]},"properties":{"stormname":"Hurricane Rachel","stormtype":"HU","basin":"EP","advisnum":"18","maxwind":95,"gust":115,"mslp":9999,"ssnum":2,"tcdvlp":"Hurricane","datelbl":"5:00 PM Thu","fldatelbl":"2026-10-01 5:00 PM Thu MST","validtime":"02/0000","tau":12,"stormnum":18,"binnumber":"EP3","lat":20,"lon":-110}},{"type":"Feature","geometry":{"type":"Point","coordinates":[-110.8,19.8]},"properties":{"stormname":"Hurricane Rachel","stormtype":"MH","basin":"EP","advisnum":"18","maxwind":100,"gust":120,"mslp":9999,"ssnum":3,"tcdvlp":"Major Hurricane","datelbl":"5:00 AM Fri","fldatelbl":"2026-10-02 5:00 AM Fri MST","validtime":"02/1200","tau":24,"stormnum":18,"binnumber":"EP3","lat":20,"lon":-111}},{"type":"Feature","geometry":{"type":"Point","coordinates":[-111.5,20.0]},"properties":{"stormname":"Hurricane Rachel","stormtype":"MH","basin":"EP","advisnum":"18","maxwind":105,"gust":130,"mslp":9999,"ssnum":3,"tcdvlp":"Major Hurricane","datelbl":"5:00 PM Fri","fldatelbl":"2026-10-02 5:00 PM Fri MST","validtime":"03/0000","tau":36,"stormnum":18,"binnumber":"EP3","lat":20,"lon":-112}},{"type":"Feature","geometry":{"type":"Point","coordinates":[-112.5,20.1]},"properties":{"stormname":"Hurricane Rachel","stormtype":"MH","basin":"EP","advisnum":"18","maxwind":100,"gust":120,"mslp":9999,"ssnum":3,"tcdvlp":"Major Hurricane","datelbl":"5:00 AM Sat","fldatelbl":"2026-10-03 5:00 AM Sat MST","validtime":"03/1200","tau":48,"stormnum":18,"binnumber":"EP3","lat":20,"lon":-112}},{"type":"Feature","geometry":{"type":"Point","coordinates":[-113.6,20.3]},"properties":{"stormname":"Hurricane Rachel","stormtype":"HU","basin":"EP","advisnum":"18","maxwind":95,"gust":115,"mslp":9999,"ssnum":2,"tcdvlp":"Hurricane","datelbl":"5:00 PM Sat","fldatelbl":"2026-10-03 5:00 PM Sat MST","validtime":"04/0000","tau":60,"stormnum":18,"binnumber":"EP3","lat":20,"lon":-114}},{"type":"Feature","geometry":{"type":"Point","coordinates":[-114.7,20.4]},"properties":{"stormname":"Hurricane Rachel","stormtype":"HU","basin":"EP","advisnum":"18","maxwind":90,"gust":110,"mslp":9999,"ssnum":2,"tcdvlp":"Hurricane","datelbl":"5:00 AM Sun","fldatelbl":"2026-10-04 5:00 AM Sun MST","validtime":"04/1200","tau":72,"stormnum":18,"binnumber":"EP3","lat":20,"lon":-115}},{"type":"Feature","geometry":{"type":"Point","coordinates":[-117.2,20.5]},"properties":{"stormname":"Hurricane Rachel","stormtype":"HU","basin":"EP","advisnum":"18","maxwind":85,"gust":105,"mslp":9999,"ssnum":2,"tcdvlp":"Hurricane","datelbl":"5:00 AM Mon","fldatelbl":"2026-10-05 5:00 AM Mon MST","validtime":"05/1200","tau":96,"stormnum":18,"binnumber":"EP3","lat":20,"lon":-117}},{"type":"Feature","geometry":{"type":"Point","coordinates":[-120.3,20.6]},"properties":{"stormname":"Hurricane Rachel","stormtype":"HU","basin":"EP","advisnum":"18","maxwind":80,"gust":100,"mslp":9999,"ssnum":1,"tcdvlp":"Hurricane","datelbl":"5:00 AM Tue","fldatelbl":"2026-10-06 5:00 AM Tue MST","validtime":"06/1200","tau":120,"stormnum":18,"binnumber":"EP3","lat":21,"lon":-120}}]}