{"type":"FeatureCollection","features":[{"type":"Feature","geometry":{"type":"Polygon","coordinates":[[[-120.55,18.31],[-120.54,18.31],[-120.52,18.31],[-120.5,18.31],[-120.48,18.31],[-120.46,18.31],[-120.43,18.31],[-120.41,18.31],[-120.39,18.31],[-120.36,18.31],[-120.34,18.31],[-120.32,18.31],[-120.3,18.31],[-120.27,18.31],[-120.25,18.31],[-120.23,18.31],[-120.21,18.31],[-120.18,18.31],[-120.16,18.31],[-120.15,18.31],[-120.12,18.31],[-120.1,18.31],[-120.09,18.31],[-120.06,18.31],[-120.04,18.32],[-120.02,18.32],[-120.0,18.32],[-119.98,18.33],[-119.96,18.33],[-119.93,18.33],[-119.91,18.33],[-119.9,18.33],[-119.87,18.34],[-119.85,18.34],[-119.84,18.34],[-119.82,18.35],[-119.8,18.35],[-119.79,18.35],[-119.76,18.35],[-119.73,18.36],[-119.72,18.36],[-119.69,18.37],[-119.68,18.37],[-119.66,18.37],[-119.64,18.37],[-119.62,18.37],[-119.6,18.38],[-119.58,18.38],[-119.56,18.38],[-119.55,18.38],[-119.52,18.39],[-119.5,18.39],[-119.48,18.4],[-119.46,18.4],[-119.44,18.4],[-119.42,18.4],[-119.4,18.41],[-119.38,18.41],[-119.36,18.41],[-119.34,18.42],[-119.32,18.42],[-119.3,18.42],[-119.28,18.42],[-119.26,18.42],[-119.25,18.42],[-119.22,18.43],[-119.2,18.43],[-119.18,18.44],[-119.16,18.44],[-119.14,18.44],[-119.12,18.44],[-119.1,18.45],[-119.08,18.45],[-119.06,18.45],[-119.04,18.45],[-119.02,18.46],[-119.01,18.46],[-118.98,18.46],[-118.96,18.47],[-118.94,18.47],[-118.92,18.47],[-118.9,18.47],[-118.88,18.48],[-118.86,18.48],[-118.84,18.48],[-118.82,18.49],[-118.8,18.49],[-118.78,18.49],[-118.76,18.49],[-118.75,18.49],[-118.71,18.5],[-118.7,18.5],[-118.68,18.5],[-118.66,18.51],[-118.64,18.51],[-118.62,18.51],[-118.6,18.51],[-118.58,18.52],[-118.56,18.52],[-118.54,18.52],[-118.52,18.53],[-118.5,18.53],[-118.48,18.53],[-118.47,18.53],[-118.45,18.54],[-118.42,18.54],[-118.4,18.54],[-118.38,18.55],[-118.36,18.55],[-118.34,18.55],[-118.32,18.55],[-118.3,18.56],[-118.28,18.56],[-118.27,18.56],[-118.24,18.56],[-118.22,18.57],[-118.2,18.57],[-118.18,18.57],[-118.16,18.58],[-118.14,18.58],[-118.12,18.58],[-118.1,18.58],[-118.08,18.58],[-118.06,18.59],[-118.04,18.59],[-118.02,18.59],[-117.99,18.6],[-117.98,18.6],[-117.97,18.6],[-117.94,18.6],[-117.93,18.61],[-117.9,18.61],[-117.88,18.61],[-117.86,18.62],[-117.84,18.62],[-117.82,18.62],[-117.81,18.62],[-117.78,18.63],[-117.76,18.63],[-117.74,18.63],[-117.72,18.64],[-117.7,18.64],[-117.69,18.64],[-117.67,18.65],[-117.64,18.65],[-117.63,18.65],[-117.6,18.65],[-117.58,18.66],[-117.57,18.66],[-117.55,18.66],[-117.54,18.66],[-117.51,18.67],[-117.49,18.67],[-117.47,18.67],[-117.45,18.67],[-117.43,18.68],[-117.41,18.68],[-117.39,18.68],[-117.37,18.69],[-117.35,18.69],[-117.33,18.69],[-117.31,18.7],[-117.29,18.7],[-117.27,18.7],[-117.25,18.71],[-117.23,18.71],[-117.21,18.71],[-117.19,18.72],[-117.17,18.72],[-117.15,18.72],[-117.13,18.72],[-117.11,18.73],[-117.09,18.73],[-117.07,18.73],[-117.05,18.74],[-117.03,18.74],[-117.01,18.74],[-116.99,18.74],[-116.97,18.75],[-116.95,18.75],[-116.93,18.75],[-116.91,18.76],[-116.89,18.76],[-116.88,18.76],[-116.85,18.76],[-116.83,18.77],[-116.81,18.77],[-116.8,18.77],[-116.78,18.78],[-116.75,18.78],[-116.74,18.78],[-116.72,18.78],[-116.7,18.79],[-116.68,18.79],[-116.66,18.79],[-116.64,18.79],[-116.62,18.8],[-116.6,18.8],[-116.59,18.8],[-116.56,18.81],[-116.54,18.81],[-116.51,18.81],[-116.5,18.81],[-116.47,18.81],[-116.46,18.82],[-116.44,18.82],[-116.42,18.82],[-116.4,18.83],[-116.37,18.83],[-116.35,18.83],[-116.34,18.83],[-116.31,18.83],[-116.29,18.84],[-116.27,18.84],[-116.25,18.84],[-116.23,18.85],[-116.21,18.85],[-116.19,18.85],[-116.17,18.85],[-116.15,18.86],[-116.14,18.86],[-116.12,18.86],[-116.1,18.87],[-116.08,18.87],[-116.06,18.87],[-116.04,18.87],[-116.02,18.88],[-116.0,18.88],[-115.98,18.88],[-115.96,18.89],[-115.94,18.89],[-115.92,18.89],[-115.9,18.89],[-115.88,18.9],[-115.87,18.9],[-115.83,18.9],[-115.82,18.9],[-115.79,18.91],[-115.78,18.91],[-115.76,18.91],[-115.74,18.91],[-115.72,18.92],[-115.7,18.92],[-115.68,18.92],[-115.66,18.92],[-115.64,18.93],[-115.62,18.93],[-115.61,18.93],[-115.58,18.94],[-115.56,18.94],[-115.54,18.94],[-115.52,18.94],[-115.5,18.95],[-115.48,18.95],[-115.46,18.95],[-115.44,18.96],[-115.42,18.96],[-115.4,18.96],[-115.38,18.97],[-115.36,18.97],[-115.34,18.97],[-115.32,18.97],[-115.3,18.98],[-115.28,18.98],[-115.26,18.98],[-115.24,18.99],[-115.22,18.99],[-115.2,18.99],[-115.18,19.0],[-115.16,19.0],[-115.15,19.0],[-115.12,19.01],[-115.1,19.01],[-115.08,19.01],[-115.05,19.01],[-115.04,19.02],[-115.02,19.02],[-115.0,19.02],[-114.99,19.03],[-114.97,19.03],[-114.95,19.03],[-114.93,19.03],[-114.91,19.04],[-114.89,19.04],[-114.87,19.04],[-114.85,19.05],[-114.83,19.05],[-114.81,19.06],[-114.79,19.06],[-114.76,19.07],[-114.76,19.07],[-114.74,19.07],[-114.72,19.07],[-114.71,19.08],[-114.68,19.08],[-114.66,19.08],[-114.64,19.09],[-114.61,19.09],[-114.6,19.09],[-114.58,19.1],[-114.56,19.1],[-114.54,19.1],[-114.52,19.11],[-114.5,19.11],[-114.48,19.11],[-114.46,19.12],[-114.44,19.12],[-114.43,19.12],[-114.4,19.12],[-114.39,19.12],[-114.36,19.12],[-114.34,19.12],[-114.31,19.12],[-114.3,19.12],[-114.27,19.13],[-114.25,19.13],[-114.24,19.13],[-114.21,19.13],[-114.19,19.14],[-114.17,19.14],[-114.15,19.14],[-114.13,19.14],[-114.12,19.14],[-114.09,19.15],[-114.07,19.15],[-114.04,19.15],[-114.02,19.15],[-114.0,19.15],[-113.98,19.16],[-113.97,19.16],[-113.95,19.16],[-113.93,19.17],[-113.9,19.17],[-113.88,19.17],[-113.86,19.17],[-113.84,19.17],[-113.82,19.18],[-113.8,19.18],[-113.78,19.18],[-113.76,19.19],[-113.74,19.19],[-113.72,19.19],[-113.7,19.19],[-113.68,19.19],[-113.67,19.19],[-113.64,19.19],[-113.62,19.19],[-113.6,19.19],[-113.58,19.19],[-113.55,19.19],[-113.53,19.19],[-113.51,19.19],[-113.49,19.19],[-113.46,19.19],[-113.44,19.19],[-113.42,19.19],[-113.4,19.19],[-113.37,19.19],[-113.35,19.19],[-113.33,19.19],[-113.3,19.19],[-113.28,19.19],[-113.26,19.19],[-113.24,19.19],[-113.21,19.19],[-113.19,19.19],[-113.17,19.19],[-113.15,19.19],[-113.11,19.19],[-113.1,19.19],[-113.07,19.19],[-113.05,19.19],[-113.03,19.19],[-113.02,19.19],[-112.99,19.18],[-112.97,19.18],[-112.95,19.17],[-112.93,19.17],[-112.92,19.17],[-112.88,19.17],[-112.86,19.17],[-112.84,19.17],[-112.82,19.17],[-112.79,19.17],[-112.77,19.17],[-112.75,19.17],[-112.73,19.17],[-112.7,19.17],[-112.68,19.17],[-112.66,19.17],[-112.64,19.17],[-112.61,19.17],[-112.59,19.17],[-112.57,19.17],[-112.55,19.17],[-112.52,19.17],[-112.5,19.17],[-112.48,19.17],[-112.45,19.17],[-112.43,19.17],[-112.41,19.17],[-112.39,19.17],[-112.36,19.17],[-112.34,19.17],[-112.32,19.17],[-112.3,19.17],[-112.27,19.17],[-112.25,19.17],[-112.23,19.17],[-112.21,19.17],[-112.18,19.17],[-112.16,19.17],[-112.14,19.17],[-112.12,19.17],[-112.1,19.17],[-112.07,19.17],[-112.05,19.17],[-112.03,19.18],[-112.01,19.18],[-111.99,19.18],[-111.97,19.19],[-111.95,19.19],[-111.93,19.19],[-111.91,19.19],[-111.89,19.19],[-111.88,19.19],[-111.85,19.19],[-111.83,19.19],[-111.81,19.19],[-111.79,19.19],[-111.76,19.19],[-111.74,19.19],[-111.72,19.19],[-111.7,19.19],[-111.67,19.19],[-111.65,19.19],[-111.63,19.19],[-111.6,19.19],[-111.58,19.19],[-111.56,19.19],[-111.54,19.19],[-111.51,19.19],[-111.49,19.19],[-111.47,19.19],[-111.45,19.19],[-111.42,19.19],[-111.4,19.19],[-111.38,19.19],[-111.36,19.19],[-111.33,19.19],[-111.31,19.19],[-111.29,19.19],[-111.26,19.19],[-111.24,19.19],[-111.22,19.19],[-111.2,19.19],[-111.17,19.19],[-111.15,19.19],[-111.13,19.19],[-111.11,19.19],[-111.08,19.19],[-111.06,19.19],[-111.04,19.19],[-111.02,19.19],[-110.99,19.19],[-110.97,19.19],[-110.95,19.19],[-110.92,19.19],[-110.9,19.19],[-110.88,19.19],[-110.86,19.19],[-110.83,19.19],[-110.81,19.19],[-110.79,19.19],[-110.77,19.19],[-110.74,19.19],[-110.71,19.19],[-110.69,19.19],[-110.67,19.19],[-110.64,19.19],[-110.62,19.2],[-110.6,19.2],[-110.58,19.2],[-110.57,19.21],[-110.55,19.21],[-110.53,19.21],[-110.5,19.21],[-110.48,19.22],[-110.46,19.22],[-110.44,19.22],[-110.43,19.22],[-110.4,19.23],[-110.38,19.23],[-110.37,19.23],[-110.35,19.24],[-110.33,19.24],[-110.31,19.24],[-110.29,19.25],[-110.27,19.25],[-110.25,19.25],[-110.23,19.26],[-110.21,19.26],[-110.2,19.26],[-110.17,19.26],[-110.15,19.27],[-110.13,19.27],[-110.11,19.28],[-110.1,19.28],[-110.07,19.28],[-110.05,19.28],[-110.03,19.29],[-110.01,19.29],[-110.0,19.29],[-109.97,19.29],[-109.96,19.3],[-109.93,19.3],[-109.91,19.3],[-109.89,19.3],[-109.88,19.3],[-109.86,19.31],[-109.83,19.31],[-109.81,19.31],[-109.79,19.31],[-109.78,19.31],[-109.75,19.32],[-109.73,19.32],[-109.71,19.32],[-109.69,19.33],[-109.67,19.33],[-109.64,19.33],[-109.63,19.33],[-109.6,19.33],[-109.58,19.33],[-109.56,19.34],[-109.54,19.34],[-109.53,19.35],[-109.51,19.35],[-109.5,19.35],[-109.48,19.36],[-109.46,19.37],[-109.45,19.38],[-109.43,19.39],[-109.42,19.4],[-109.4,19.41],[-109.4,19.42],[-109.38,19.43],[-109.37,19.45],[-109.35,19.47],[-109.35,19.48],[-109.34,19.5],[-109.33,19.52],[-109.33,19.53],[-109.32,19.55],[-109.32,19.57],[-109.32,19.59],[-109.32,19.6],[-109.32,19.64],[-109.32,19.65],[-109.33,19.67],[-109.34,19.68],[-109.34,19.7],[-109.35,19.71],[-109.36,19.73],[-109.36,19.74],[-109.38,19.76],[-109.39,19.78],[-109.4,19.79],[-109.41,19.79],[-109.43,19.81],[-109.44,19.82],[-109.45,19.83],[-109.47,19.84],[-109.48,19.84],[-109.5,19.85],[-109.5,19.86],[-109.52,19.87],[-109.54,19.88],[-109.55,19.89],[-109.57,19.89],[-109.58,19.9],[-109.6,19.91],[-109.61,19.92],[-109.63,19.93],[-109.65,19.94],[-109.65,19.94],[-109.67,19.95],[-109.68,19.96],[-109.7,19.97],[-109.71,19.98],[-109.72,19.99],[-109.74,19.99],[-109.75,20.0],[-109.77,20.01],[-109.78,20.02],[-109.8,20.02],[-109.81,20.03],[-109.83,20.04],[-109.84,20.05],[-109.86,20.05],[-109.87,20.06],[-109.89,20.07],[-109.9,20.08],[-109.92,20.09],[-109.94,20.09],[-109.95,20.1],[-109.97,20.11],[-109.98,20.12],[-110.0,20.12],[-110.02,20.13],[-110.04,20.14],[-110.04,20.14],[-110.07,20.15],[-110.08,20.16],[-110.09,20.16],[-110.11,20.17],[-110.12,20.18],[-110.14,20.18],[-110.15,20.19],[-110.17,20.2],[-110.19,20.2],[-110.2,20.21],[-110.23,20.22],[-110.24,20.22],[-110.26,20.23],[-110.27,20.24],[-110.29,20.25],[-110.3,20.25],[-110.31,20.26],[-110.34,20.27],[-110.35,20.27],[-110.36,20.28],[-110.38,20.29],[-110.4,20.29],[-110.41,20.3],[-110.43,20.31],[-110.44,20.31],[-110.46,20.32],[-110.47,20.33],[-110.49,20.34],[-110.5,20.35],[-110.51,20.35],[-110.53,20.36],[-110.54,20.37],[-110.55,20.38],[-110.57,20.39],[-110.58,20.4],[-110.59,20.41],[-110.61,20.42],[-110.62,20.43],[-110.63,20.44],[-110.65,20.45],[-110.66,20.45],[-110.68,20.46],[-110.68,20.47],[-110.7,20.48],[-110.72,20.49],[-110.73,20.5],[-110.74,20.51],[-110.75,20.51],[-110.77,20.53],[-110.78,20.54],[-110.8,20.54],[-110.81,20.55],[-110.83,20.57],[-110.84,20.57],[-110.86,20.58],[-110.88,20.59],[-110.88,20.6],[-110.9,20.6],[-110.91,20.61],[-110.93,20.62],[-110.94,20.63],[-110.96,20.64],[-110.97,20.65],[-110.99,20.65],[-111.0,20.66],[-111.02,20.67],[-111.03,20.68],[-111.05,20.68],[-111.07,20.69],[-111.08,20.7],[-111.09,20.7],[-111.12,20.71],[-111.13,20.72],[-111.14,20.72],[-111.17,20.73],[-111.17,20.74],[-111.2,20.75],[-111.21,20.75],[-111.22,20.76],[-111.24,20.76],[-111.26,20.77],[-111.27,20.77],[-111.29,20.78],[-111.32,20.79],[-111.32,20.79],[-111.35,20.8],[-111.36,20.8],[-111.39,20.81],[-111.4,20.81],[-111.42,20.82],[-111.43,20.82],[-111.45,20.82],[-111.48,20.83],[-111.5,20.83],[-111.51,20.84],[-111.53,20.84],[-111.54,20.84],[-111.56,20.85],[-111.59,20.85],[-111.61,20.86],[-111.63,20.86],[-111.65,20.87],[-111.65,20.87],[-111.67,20.87],[-111.7,20.88],[-111.72,20.88],[-111.74,20.89],[-111.76,20.89],[-111.77,20.89],[-111.79,20.9],[-111.8,20.9],[-111.82,20.9],[-111.85,20.91],[-111.86,20.91],[-111.88,20.92],[-111.9,20.92],[-111.93,20.93],[-111.94,20.93],[-111.95,20.93],[-111.98,20.94],[-111.99,20.94],[-112.02,20.94],[-112.03,20.95],[-112.06,20.95],[-112.07,20.95],[-112.09,20.96],[-112.11,20.97],[-112.13,20.97],[-112.14,20.97],[-112.16,20.98],[-112.17,20.98],[-112.19,20.99],[-112.21,20.99],[-112.23,21.0],[-112.24,21.0],[-112.26,21.01],[-112.28,21.01],[-112.3,21.02],[-112.32,21.03],[-112.33,21.03],[-112.35,21.04],[-112.36,21.04],[-112.38,21.05],[-112.4,21.06],[-112.41,21.06],[-112.44,21.07],[-112.45,21.07],[-112.47,21.08],[-112.48,21.09],[-112.51,21.09],[-112.51,21.1],[-112.54,21.11],[-112.56,21.11],[-112.57,21.12],[-112.58,21.12],[-112.6,21.13],[-112.62,21.13],[-112.63,21.14],[-112.66,21.15],[-112.66,21.15],[-112.68,21.16],[-112.7,21.16],[-112.71,21.17],[-112.73,21.18],[-112.75,21.18],[-112.76,21.19],[-112.78,21.19],[-112.81,21.2],[-112.82,21.21],[-112.84,21.21],[-112.86,21.22],[-112.87,21.22],[-112.89,21.23],[-112.91,21.24],[-112.92,21.24],[-112.93,21.24],[-112.95,21.25],[-112.97,21.26],[-112.98,21.26],[-113.01,21.27],[-113.02,21.27],[-113.04,21.28],[-113.05,21.28],[-113.08,21.29],[-113.09,21.3],[-113.1,21.3],[-113.12,21.31],[-113.15,21.32],[-113.16,21.32],[-113.17,21.32],[-113.19,21.33],[-113.21,21.34],[-113.22,21.34],[-113.24,21.35],[-113.26,21.35],[-113.27,21.36],[-113.29,21.36],[-113.32,21.37],[-113.33,21.38],[-113.34,21.38],[-113.36,21.39],[-113.38,21.39],[-113.39,21.4],[-113.41,21.4],[-113.42,21.41],[-113.44,21.42],[-113.46,21.42],[-113.48,21.43],[-113.5,21.44],[-113.51,21.44],[-113.52,21.45],[-113.54,21.45],[-113.57,21.46],[-113.57,21.47],[-113.59,21.47],[-113.62,21.48],[-113.63,21.49],[-113.64,21.49],[-113.66,21.49],[-113.68,21.5],[-113.69,21.51],[-113.72,21.51],[-113.73,21.52],[-113.75,21.52],[-113.76,21.53],[-113.78,21.53],[-113.8,21.54],[-113.82,21.54],[-113.84,21.55],[-113.85,21.55],[-113.87,21.55],[-113.89,21.56],[-113.91,21.56],[-113.93,21.57],[-113.94,21.57],[-113.96,21.58],[-113.99,21.58],[-114.0,21.59],[-114.03,21.59],[-114.03,21.59],[-114.05,21.6],[-114.07,21.6],[-114.09,21.61],[-114.11,21.61],[-114.13,21.62],[-114.15,21.62],[-114.16,21.62],[-114.18,21.63],[-114.21,21.63],[-114.23,21.64],[-114.24,21.64],[-114.26,21.64],[-114.28,21.65],[-114.3,21.65],[-114.31,21.65],[-114.34,21.66],[-114.36,21.66],[-114.37,21.67],[-114.39,21.67],[-114.41,21.68],[-114.43,21.68],[-114.44,21.69],[-114.46,21.69],[-114.48,21.7],[-114.49,21.7],[-114.51,21.71],[-114.53,21.71],[-114.56,21.72],[-114.56,21.72],[-114.58,21.73],[-114.6,21.73],[-114.62,21.74],[-114.63,21.74],[-114.65,21.75],[-114.68,21.76],[-114.7,21.76],[-114.71,21.76],[-114.73,21.77],[-114.74,21.77],[-114.76,21.78],[-114.79,21.78],[-114.8,21.78],[-114.82,21.79],[-114.84,21.8],[-114.85,21.8],[-114.87,21.8],[-114.9,21.81],[-114.91,21.81],[-114.92,21.82],[-114.94,21.82],[-114.96,21.83],[-114.99,21.83],[-115.0,21.84],[-115.02,21.84],[-115.04,21.85],[-115.05,21.85],[-115.07,21.85],[-115.09,21.86],[-115.11,21.86],[-115.12,21.87],[-115.15,21.87],[-115.17,21.88],[-115.18,21.88],[-115.2,21.88],[-115.21,21.89],[-115.23,21.89],[-115.25,21.9],[-115.27,21.9],[-115.29,21.9],[-115.31,21.91],[-115.34,21.91],[-115.34,21.92],[-115.37,21.92],[-115.38,21.93],[-115.41,21.93],[-115.43,21.94],[-115.45,21.94],[-115.46,21.94],[-115.47,21.94],[-115.5,21.95],[-115.51,21.95],[-115.54,21.96],[-115.55,21.96],[-115.58,21.97],[-115.58,21.97],[-115.6,21.98],[-115.63,21.98],[-115.64,21.98],[-115.66,21.99],[-115.69,21.99],[-115.71,22.0],[-115.72,22.0],[-115.74,22.0],[-115.76,22.01],[-115.77,22.01],[-115.79,22.01],[-115.81,22.02],[-115.83,22.02],[-115.85,22.03],[-115.87,22.03],[-115.88,22.03],[-115.9,22.04],[-115.93,22.05],[-115.94,22.05],[-115.96,22.05],[-115.99,22.06],[-116.0,22.06],[-116.01,22.06],[-116.04,22.07],[-116.06,22.07],[-116.08,22.08],[-116.09,22.08],[-116.12,22.08],[-116.13,22.09],[-116.16,22.09],[-116.17,22.09],[-116.18,22.1],[-116.2,22.1],[-116.22,22.1],[-116.25,22.11],[-116.26,22.11],[-116.28,22.12],[-116.3,22.12],[-116.32,22.12],[-116.34,22.13],[-116.35,22.13],[-116.38,22.14],[-116.39,22.14],[-116.41,22.14],[-116.44,22.15],[-116.45,22.15],[-116.46,22.16],[-116.49,22.16],[-116.5,22.16],[-116.52,22.17],[-116.54,22.17],[-116.56,22.18],[-116.59,22.18],[-116.6,22.18],[-116.62,22.19],[-116.63,22.19],[-116.65,22.19],[-116.68,22.2],[-116.7,22.2],[-116.72,22.21],[-116.73,22.21],[-116.76,22.22],[-116.77,22.22],[-116.79,22.22],[-116.81,22.23],[-116.82,22.23],[-116.84,22.23],[-116.87,22.24],[-116.89,22.25],[-116.9,22.25],[-116.92,22.25],[-116.94,22.26],[-116.96,22.26],[-116.97,22.26],[-116.99,22.27],[-117.01,22.27],[-117.03,22.28],[-117.04,22.28],[-117.06,22.28],[-117.08,22.29],[-117.1,22.29],[-117.13,22.3],[-117.14,22.3],[-117.16,22.3],[-117.17,22.31],[-117.19,22.31],[-117.21,22.32],[-117.24,22.32],[-117.25,22.33],[-117.27,22.33],[-117.29,22.34],[-117.3,22.34],[-117.32,22.34],[-117.34,22.35],[-117.37,22.35],[-117.39,22.36],[-117.4,22.36],[-117.42,22.36],[-117.44,22.37],[-117.45,22.37],[-117.47,22.37],[-117.5,22.38],[-117.51,22.38],[-117.54,22.39],[-117.55,22.39],[-117.58,22.39],[-117.59,22.4],[-117.61,22.4],[-117.62,22.4],[-117.65,22.41],[-117.66,22.41],[-117.69,22.42],[-117.71,22.42],[-117.72,22.43],[-117.73,22.43],[-117.76,22.44],[-117.78,22.44],[-117.79,22.44],[-117.82,22.45],[-117.84,22.45],[-117.85,22.45],[-117.88,22.46],[-117.89,22.46],[-117.9,22.46],[-117.92,22.47],[-117.95,22.47],[-117.96,22.47],[-117.98,22.48],[-118.0,22.48],[-118.03,22.49],[-118.04,22.49],[-118.05,22.49],[-118.07,22.5],[-118.09,22.5],[-118.11,22.51],[-118.13,22.51],[-118.15,22.51],[-118.18,22.52],[-118.19,22.52],[-118.21,22.52],[-118.23,22.53],[-118.25,22.53],[-118.26,22.54],[-118.28,22.54],[-118.3,22.54],[-118.33,22.55],[-118.34,22.55],[-118.36,22.55],[-118.39,22.56],[-118.39,22.56],[-118.41,22.57],[-118.43,22.57],[-118.45,22.57],[-118.48,22.58],[-118.49,22.58],[-118.51,22.58],[-118.53,22.59],[-118.55,22.59],[-118.57,22.6],[-118.58,22.6],[-118.6,22.6],[-118.63,22.61],[-118.64,22.61],[-118.67,22.62],[-118.69,22.62],[-118.71,22.62],[-118.72,22.63],[-118.74,22.63],[-118.75,22.63],[-118.77,22.64],[-118.79,22.64],[-118.82,22.65],[-118.83,22.65],[-118.85,22.65],[-118.87,22.66],[-118.9,22.66],[-118.9,22.66],[-118.93,22.67],[-118.94,22.67],[-118.97,22.68],[-118.98,22.68],[-119.01,22.68],[-119.02,22.69],[-119.04,22.69],[-119.06,22.69],[-119.08,22.7],[-119.1,22.7],[-119.11,22.71],[-119.13,22.71],[-119.16,22.72],[-119.18,22.72],[-119.18,22.72],[-119.2,22.73],[-119.23,22.73],[-119.24,22.74],[-119.27,22.74],[-119.29,22.75],[-119.31,22.75],[-119.33,22.75],[-119.34,22.75],[-119.35,22.76],[-119.38,22.76],[-119.39,22.77],[-119.42,22.77],[-119.43,22.77],[-119.45,22.78],[-119.48,22.78],[-119.5,22.79],[-119.51,22.79],[-119.53,22.79],[-119.54,22.8],[-119.57,22.8],[-119.58,22.8],[-119.6,22.81],[-119.63,22.81],[-119.65,22.82],[-119.66,22.82],[-119.68,22.82],[-119.69,22.83],[-119.71,22.83],[-119.73,22.83],[-119.75,22.84],[-119.78,22.84],[-119.79,22.85],[-119.81,22.85],[-119.84,22.86],[-119.85,22.86],[-119.86,22.86],[-119.88,22.86],[-119.9,22.87],[-119.92,22.87],[-119.95,22.87],[-119.96,22.87],[-119.99,22.88],[-120.0,22.88],[-120.02,22.88],[-120.04,22.89],[-120.07,22.89],[-120.08,22.89],[-120.12,22.89],[-120.14,22.89],[-120.16,22.89],[-120.18,22.89],[-120.21,22.89],[-120.23,22.89],[-120.25,22.89],[-120.27,22.89],[-120.3,22.89],[-120.32,22.89],[-120.34,22.89],[-120.36,22.89],[-120.39,22.89],[-120.41,22.89],[-120.43,22.89],[-120.46,22.89],[-120.48,22.89],[-120.5,22.89],[-120.51,22.89],[-120.54,22.89],[-120.56,22.88],[-120.58,22.88],[-120.6,22.88],[-120.61,22.88],[-120.64,22.87],[-120.66,22.87],[-120.67,22.87],[-120.7,22.87],[-120.72,22.86],[-120.73,22.86],[-120.76,22.86],[-120.78,22.85],[-120.8,22.85],[-120.81,22.84],[-120.83,22.84],[-120.85,22.84],[-120.87,22.83],[-120.89,22.83],[-120.91,22.82],[-120.93,22.82],[-120.95,22.82],[-120.96,22.81],[-120.98,22.81],[-121.0,22.8],[-121.01,22.8],[-121.03,22.79],[-121.04,22.79],[-121.07,22.78],[-121.08,22.78],[-121.1,22.77],[-121.13,22.76],[-121.14,22.76],[-121.15,22.75],[-121.17,22.75],[-121.19,22.74],[-121.2,22.73],[-121.21,22.73],[-121.25,22.72],[-121.25,22.72],[-121.27,22.71],[-121.29,22.7],[-121.31,22.7],[-121.32,22.69],[-121.34,22.68],[-121.35,22.68],[-121.37,22.67],[-121.38,22.66],[-121.4,22.65],[-121.41,22.65],[-121.43,22.64],[-121.44,22.63],[-121.46,22.62],[-121.47,22.62],[-121.49,22.61],[-121.51,22.6],[-121.52,22.59],[-121.53,22.59],[-121.55,22.58],[-121.56,22.57],[-121.58,22.56],[-121.59,22.56],[-121.61,22.55],[-121.63,22.53],[-121.63,22.53],[-121.65,22.52],[-121.66,22.51],[-121.68,22.5],[-121.7,22.49],[-121.71,22.49],[-121.73,22.47],[-121.73,22.47],[-121.75,22.46],[-121.76,22.45],[-121.78,22.44],[-121.79,22.43],[-121.8,22.42],[-121.81,22.41],[-121.83,22.4],[-121.85,22.39],[-121.85,22.39],[-121.87,22.38],[-121.88,22.37],[-121.9,22.35],[-121.91,22.34],[-121.92,22.34],[-121.93,22.32],[-121.95,22.31],[-121.95,22.3],[-121.97,22.29],[-121.98,22.28],[-121.99,22.27],[-122.0,22.26],[-122.01,22.25],[-122.03,22.24],[-122.04,22.23],[-122.05,22.22],[-122.06,22.21],[-122.08,22.19],[-122.09,22.18],[-122.1,22.17],[-122.12,22.16],[-122.13,22.15],[-122.14,22.14],[-122.15,22.13],[-122.16,22.11],[-122.17,22.1],[-122.18,22.08],[-122.19,22.08],[-122.19,22.07],[-122.21,22.05],[-122.22,22.04],[-122.22,22.03],[-122.24,22.01],[-122.25,22.01],[-122.26,22.0],[-122.27,21.98],[-122.28,21.97],[-122.29,21.96],[-122.3,21.94],[-122.31,21.93],[-122.32,21.91],[-122.33,21.9],[-122.34,21.88],[-122.35,21.87],[-122.36,21.86],[-122.37,21.85],[-122.38,21.83],[-122.39,21.82],[-122.4,21.81],[-122.41,21.79],[-122.42,21.77],[-122.42,21.76],[-122.43,21.75],[-122.44,21.74],[-122.45,21.72],[-122.46,21.71],[-122.47,21.69],[-122.47,21.68],[-122.48,21.67],[-122.49,21.64],[-122.5,21.63],[-122.51,21.62],[-122.51,21.61],[-122.52,21.59],[-122.53,21.58],[-122.54,21.56],[-122.54,21.55],[-122.55,21.53],[-122.56,21.51],[-122.56,21.5],[-122.57,21.47],[-122.58,21.46],[-122.58,21.45],[-122.59,21.43],[-122.6,21.42],[-122.6,21.4],[-122.61,21.38],[-122.62,21.37],[-122.62,21.35],[-122.63,21.33],[-122.64,21.31],[-122.64,21.3],[-122.65,21.28],[-122.65,21.27],[-122.66,21.25],[-122.67,21.22],[-122.67,21.22],[-122.67,21.2],[-122.68,21.18],[-122.68,21.16],[-122.69,21.14],[-122.69,21.13],[-122.7,21.1],[-122.7,21.09],[-122.71,21.06],[-122.71,21.04],[-122.71,21.03],[-122.72,21.01],[-122.72,21.0],[-122.72,20.98],[-122.73,20.95],[-122.73,20.94],[-122.73,20.92],[-122.73,20.88],[-122.74,20.86],[-122.74,20.83],[-122.74,20.82],[-122.74,20.81],[-122.75,20.78],[-122.75,20.77],[-122.75,20.76],[-122.75,20.72],[-122.76,20.7],[-122.76,20.68],[-122.76,20.67],[-122.76,20.65],[-122.76,20.61],[-122.76,20.59],[-122.76,20.57],[-122.76,20.54],[-122.76,20.52],[-122.75,20.5],[-122.75,20.48],[-122.75,20.46],[-122.75,20.44],[-122.75,20.43],[-122.74,20.41],[-122.74,20.38],[-122.74,20.36],[-122.73,20.34],[-122.73,20.31],[-122.73,20.3],[-122.73,20.28],[-122.72,20.27],[-122.72,20.24],[-122.72,20.23],[-122.71,20.21],[-122.71,20.18],[-122.7,20.16],[-122.7,20.16],[-122.69,20.13],[-122.69,20.11],[-122.69,20.09],[-122.68,20.07],[-122.68,20.05],[-122.67,20.03],[-122.67,20.02],[-122.67,20.01],[-122.66,19.97],[-122.65,19.96],[-122.65,19.95],[-122.64,19.93],[-122.63,19.9],[-122.63,19.9],[-122.63,19.89],[-122.62,19.86],[-122.61,19.85],[-122.61,19.83],[-122.6,19.81],[-122.59,19.8],[-122.59,19.78],[-122.58,19.77],[-122.57,19.74],[-122.56,19.74],[-122.56,19.72],[-122.55,19.7],[-122.55,19.69],[-122.54,19.66],[-122.53,19.65],[-122.52,19.64],[-122.52,19.62],[-122.51,19.61],[-122.5,19.59],[-122.49,19.57],[-122.48,19.56],[-122.48,19.55],[-122.47,19.54],[-122.46,19.52],[-122.45,19.51],[-122.44,19.5],[-122.43,19.47],[-122.42,19.46],[-122.42,19.45],[-122.4,19.43],[-122.4,19.43],[-122.39,19.41],[-122.38,19.39],[-122.37,19.38],[-122.36,19.36],[-122.35,19.36],[-122.34,19.34],[-122.33,19.32],[-122.32,19.31],[-122.31,19.3],[-122.31,19.29],[-122.29,19.27],[-122.28,19.26],[-122.27,19.24],[-122.26,19.23],[-122.25,19.22],[-122.24,19.21],[-122.23,19.2],[-122.22,19.19],[-122.21,19.17],[-122.2,19.16],[-122.19,19.15],[-122.18,19.14],[-122.17,19.12],[-122.16,19.11],[-122.15,19.1],[-122.14,19.08],[-122.13,19.07],[-122.12,19.07],[-122.1,19.05],[-122.09,19.04],[-122.08,19.03],[-122.07,19.02],[-122.06,19.01],[-122.05,19.0],[-122.04,18.99],[-122.02,18.97],[-122.02,18.97],[-122.0,18.95],[-121.99,18.94],[-121.97,18.92],[-121.96,18.92],[-121.95,18.91],[-121.94,18.9],[-121.92,18.89],[-121.92,18.88],[-121.9,18.87],[-121.89,18.86],[-121.88,18.85],[-121.86,18.84],[-121.85,18.83],[-121.84,18.82],[-121.82,18.81],[-121.8,18.79],[-121.8,18.79],[-121.78,18.78],[-121.77,18.77],[-121.76,18.76],[-121.74,18.75],[-121.73,18.74],[-121.72,18.73],[-121.71,18.73],[-121.69,18.72],[-121.68,18.71],[-121.66,18.7],[-121.65,18.69],[-121.64,18.68],[-121.62,18.67],[-121.61,18.66],[-121.59,18.65],[-121.58,18.65],[-121.56,18.64],[-121.55,18.63],[-121.54,18.62],[-121.52,18.61],[-121.51,18.6],[-121.49,18.59],[-121.48,18.59],[-121.46,18.58],[-121.45,18.57],[-121.43,18.56],[-121.42,18.56],[-121.39,18.55],[-121.39,18.54],[-121.37,18.54],[-121.35,18.53],[-121.33,18.52],[-121.32,18.52],[-121.31,18.51],[-121.29,18.5],[-121.27,18.5],[-121.26,18.49],[-121.24,18.48],[-121.22,18.47],[-121.21,18.47],[-121.19,18.46],[-121.18,18.46],[-121.16,18.45],[-121.14,18.45],[-121.13,18.44],[-121.11,18.43],[-121.09,18.43],[-121.08,18.42],[-121.06,18.42],[-121.04,18.41],[-121.02,18.41],[-121.0,18.4],[-120.99,18.4],[-120.97,18.39],[-120.94,18.39],[-120.93,18.38],[-120.92,18.38],[-120.9,18.37],[-120.87,18.37],[-120.85,18.36],[-120.84,18.36],[-120.82,18.36],[-120.8,18.35],[-120.79,18.35],[-120.76,18.34],[-120.75,18.34],[-120.73,18.34],[-120.7,18.33],[-120.69,18.33],[-120.66,18.33],[-120.65,18.33],[-120.63,18.33],[-120.6,18.32],[-120.59,18.32],[-120.56,18.31],[-120.55,18.31]]]},"properties":{"stormname":"Rachel","stormtype":"HU","basin":"EP","advisnum":"18","stormnum":18,"binnumber":"EP3"}},{"type":"Feature","geometry":{"type":"MultiPolygon","coordinates":[[[[180.0,25.68],[179.99,25.69],[179.95,25.7],[179.93,25.71],[179.92,25.71],[179.89,25.72],[179.86,25.73],[179.84,25.74],[179.83,25.74],[179.8,25.75],[179.78,25.76],[179.77,25.77],[179.74,25.78],[179.71,25.79],[179.7,25.79],[179.67,25.8],[179.64,25.81],[179.62,25.82],[179.61,25.82],[179.59,25.83],[179.55,25.84],[179.54,25.85],[179.51,25.86],[179.5,25.86],[179.46,25.87],[179.45,25.88],[179.42,25.89],[179.41,25.89],[179.37,25.9],[179.36,25.91],[179.34,25.91],[179.32,25.92],[179.28,25.93],[179.26,25.94],[179.24,25.95],[179.23,25.95],[179.2,25.96],[179.18,25.97],[179.16,25.97],[179.14,25.98],[179.11,25.99],[179.09,26.0],[179.07,26.0],[179.03,26.02],[179.01,26.02],[178.99,26.03],[178.98,26.04],[178.94,26.05],[178.93,26.05],[178.91,26.06],[178.88,26.07],[178.85,26.08],[178.84,26.08],[178.81,26.09],[178.78,26.1],[178.76,26.11],[178.74,26.11],[178.73,26.12],[178.69,26.13],[178.67,26.14],[178.65,26.14],[178.63,26.15],[178.61,26.16],[178.58,26.17],[178.57,26.17],[178.53,26.18],[178.52,26.18],[178.49,26.19],[178.47,26.2],[178.45,26.2],[178.42,26.21],[178.4,26.22],[178.37,26.23],[178.35,26.24],[178.34,26.24],[178.31,26.25],[178.29,26.25],[178.27,26.26],[178.25,26.27],[178.21,26.28],[178.2,26.28],[178.18,26.29],[178.14,26.3],[178.12,26.31],[178.11,26.31],[178.07,26.33],[178.05,26.33],[178.03,26.34],[178.02,26.34],[177.98,26.35],[177.97,26.35],[177.94,26.36],[177.91,26.37],[177.89,26.38],[177.88,26.38],[177.84,26.39],[177.82,26.4],[177.8,26.41],[177.77,26.42],[177.75,26.42],[177.74,26.43],[177.7,26.44],[177.69,26.44],[177.65,26.45],[177.63,26.46],[177.62,26.46],[177.6,26.47],[177.57,26.47],[177.54,26.48],[177.51,26.49],[177.49,26.5],[177.47,26.5],[177.44,26.51],[177.42,26.52],[177.41,26.52],[177.37,26.53],[177.35,26.54],[177.33,26.54],[177.3,26.55],[177.29,26.55],[177.25,26.56],[177.24,26.56],[177.22,26.57],[177.18,26.58],[177.17,26.58],[177.13,26.59],[177.11,26.6],[177.1,26.6],[177.06,26.61],[177.04,26.62],[177.01,26.62],[177.0,26.63],[176.98,26.63],[176.96,26.64],[176.92,26.65],[176.9,26.66],[176.89,26.66],[176.85,26.67],[176.83,26.68],[176.8,26.68],[176.79,26.69],[176.75,26.69],[176.73,26.7],[176.71,26.71],[176.68,26.71],[176.67,26.72],[176.63,26.73],[176.61,26.73],[176.59,26.74],[176.57,26.74],[176.55,26.75],[176.51,26.76],[176.5,26.76],[176.46,26.77],[176.44,26.77],[176.42,26.78],[176.4,26.78],[176.38,26.79],[176.34,26.79],[176.32,26.8],[176.29,26.8],[176.27,26.81],[176.24,26.82],[176.22,26.82],[176.19,26.83],[176.17,26.83],[176.14,26.84],[176.12,26.85],[176.1,26.85],[176.07,26.86],[176.05,26.86],[176.02,26.87],[176.0,26.88],[175.99,26.88],[175.95,26.89],[175.94,26.89],[175.9,26.9],[175.88,26.91],[175.85,26.91],[175.83,26.92],[175.8,26.92],[175.78,26.93],[175.75,26.93],[175.73,26.94],[175.7,26.94],[175.68,26.95],[175.67,26.95],[175.63,26.96],[175.61,26.97],[175.58,26.97],[175.56,26.98],[175.53,26.98],[175.51,26.99],[175.48,26.99],[175.46,27.0],[175.43,27.0],[175.41,27.01],[175.39,27.01],[175.35,27.02],[175.33,27.02],[175.3,27.03],[175.29,27.03],[175.25,27.04],[175.23,27.04],[175.22,27.04],[175.18,27.05],[175.15,27.06],[175.13,27.06],[175.12,27.06],[175.08,27.07],[175.05,27.08],[175.03,27.08],[175.0,27.09],[174.98,27.09],[174.95,27.1],[174.93,27.1],[174.9,27.11],[174.89,27.11],[174.85,27.12],[174.83,27.12],[174.8,27.13],[174.78,27.13],[174.75,27.14],[174.73,27.14],[174.7,27.15],[174.69,27.15],[174.65,27.16],[174.63,27.16],[174.6,27.17],[174.58,27.17],[174.55,27.18],[174.53,27.18],[174.51,27.19],[174.47,27.19],[174.46,27.2],[174.42,27.2],[174.4,27.21],[174.37,27.21],[174.35,27.22],[174.32,27.22],[174.31,27.23],[174.29,27.23],[174.25,27.24],[174.22,27.24],[174.2,27.25],[174.17,27.25],[174.14,27.25],[174.13,27.26],[174.09,27.26],[174.07,27.27],[174.04,27.27],[174.02,27.28],[173.99,27.28],[173.97,27.29],[173.94,27.29],[173.92,27.3],[173.89,27.3],[173.86,27.31],[173.85,27.31],[173.81,27.31],[173.79,27.32],[173.77,27.32],[173.74,27.33],[173.72,27.33],[173.68,27.34],[173.66,27.34],[173.63,27.34],[173.61,27.35],[173.58,27.35],[173.55,27.36],[173.53,27.36],[173.5,27.37],[173.48,27.37],[173.45,27.38],[173.43,27.38],[173.4,27.39],[173.38,27.39],[173.35,27.4],[173.33,27.4],[173.31,27.4],[173.27,27.41],[173.25,27.41],[173.22,27.42],[173.21,27.42],[173.17,27.43],[173.14,27.43],[173.13,27.43],[173.09,27.44],[173.08,27.44],[173.04,27.45],[173.02,27.45],[172.99,27.46],[172.96,27.46],[172.94,27.47],[172.92,27.47],[172.89,27.47],[172.86,27.48],[172.83,27.48],[172.81,27.49],[172.78,27.49],[172.76,27.5],[172.73,27.5],[172.72,27.5],[172.68,27.51],[172.65,27.51],[172.63,27.52],[172.6,27.52],[172.58,27.53],[172.55,27.53],[172.52,27.54],[172.5,27.54],[172.47,27.54],[172.45,27.55],[172.43,27.55],[172.39,27.56],[172.37,27.56],[172.34,27.57],[172.32,27.57],[172.3,27.57],[172.27,27.58],[172.24,27.58],[172.23,27.58],[172.19,27.59],[172.16,27.6],[172.14,27.6],[172.11,27.6],[172.1,27.61],[172.06,27.61],[172.03,27.62],[172.01,27.62],[171.98,27.63],[171.96,27.63],[171.93,27.63],[171.9,27.64],[171.88,27.64],[171.85,27.65],[171.83,27.65],[171.8,27.66],[171.77,27.66],[171.75,27.67],[171.72,27.67],[171.7,27.67],[171.67,27.68],[171.64,27.68],[171.62,27.69],[171.61,27.69],[171.57,27.7],[171.54,27.7],[171.51,27.7],[171.49,27.71],[171.46,27.71],[171.44,27.72],[171.41,27.72],[171.39,27.73],[171.36,27.73],[171.35,27.73],[171.31,27.74],[171.28,27.74],[171.26,27.75],[171.24,27.75],[171.21,27.76],[171.18,27.76],[171.15,27.76],[171.13,27.77],[171.11,27.77],[171.08,27.78],[171.05,27.78],[171.02,27.79],[171.0,27.79],[170.97,27.79],[170.95,27.8],[170.92,27.8],[170.89,27.81],[170.87,27.81],[170.84,27.82],[170.82,27.82],[170.79,27.82],[170.78,27.83],[170.74,27.83],[170.71,27.84],[170.69,27.84],[170.66,27.85],[170.64,27.85],[170.61,27.85],[170.58,27.86],[170.57,27.86],[170.53,27.87],[170.51,27.87],[170.48,27.88],[170.46,27.88],[170.43,27.88],[170.4,27.89],[170.38,27.89],[170.35,27.9],[170.33,27.9],[170.31,27.9],[170.29,27.91],[170.25,27.91],[170.22,27.92],[170.2,27.92],[170.17,27.93],[170.15,27.93],[170.12,27.94],[170.11,27.94],[170.07,27.95],[170.04,27.95],[170.02,27.96],[170.01,27.96],[169.97,27.97],[169.94,27.97],[169.93,27.97],[169.89,27.98],[169.86,27.98],[169.85,27.99],[169.81,27.99],[169.79,28.0],[169.78,28.0],[169.74,28.01],[169.71,28.01],[169.69,28.02],[169.66,28.02],[169.64,28.03],[169.61,28.03],[169.58,28.04],[169.56,28.04],[169.53,28.04],[169.51,28.05],[169.49,28.05],[169.45,28.06],[169.43,28.06],[169.4,28.06],[169.37,28.07],[169.35,28.07],[169.33,28.07],[169.3,28.08],[169.27,28.08],[169.24,28.09],[169.22,28.09],[169.19,28.09],[169.16,28.09],[169.13,28.09],[169.1,28.09],[169.07,28.09],[169.04,28.09],[169.01,28.09],[168.98,28.09],[168.95,28.09],[168.92,28.09],[168.89,28.09],[168.86,28.09],[168.83,28.09],[168.8,28.09],[168.77,28.09],[168.74,28.09],[168.72,28.08],[168.69,28.08],[168.67,28.07],[168.64,28.07],[168.61,28.07],[168.59,28.06],[168.56,28.06],[168.53,28.06],[168.51,28.05],[168.48,28.05],[168.46,28.04],[168.43,28.04],[168.41,28.03],[168.38,28.03],[168.36,28.02],[168.33,28.02],[168.31,28.01],[168.28,28.01],[168.26,28.0],[168.23,27.99],[168.21,27.99],[168.19,27.98],[168.16,27.97],[168.14,27.97],[168.12,27.96],[168.1,27.95],[168.07,27.94],[168.05,27.93],[168.03,27.93],[168.01,27.92],[167.99,27.91],[167.97,27.9],[167.94,27.89],[167.92,27.88],[167.9,27.87],[167.88,27.87],[167.86,27.86],[167.84,27.85],[167.81,27.83],[167.8,27.83],[167.78,27.82],[167.75,27.8],[167.74,27.8],[167.72,27.79],[167.7,27.78],[167.68,27.77],[167.66,27.76],[167.63,27.74],[167.62,27.74],[167.6,27.72],[167.58,27.71],[167.55,27.7],[167.54,27.69],[167.52,27.68],[167.51,27.67],[167.49,27.65],[167.47,27.64],[167.44,27.62],[167.43,27.62],[167.41,27.6],[167.4,27.59],[167.37,27.57],[167.35,27.56],[167.34,27.56],[167.33,27.54],[167.3,27.52],[167.29,27.52],[167.27,27.5],[167.25,27.48],[167.24,27.47],[167.21,27.44],[167.21,27.44],[167.19,27.42],[167.18,27.41],[167.16,27.39],[167.14,27.37],[167.13,27.36],[167.12,27.35],[167.1,27.33],[167.09,27.32],[167.06,27.29],[167.06,27.29],[167.04,27.27],[167.02,27.26],[167.01,27.24],[166.99,27.23],[166.98,27.21],[166.96,27.2],[166.95,27.18],[166.94,27.16],[166.92,27.15],[166.91,27.13],[166.89,27.11],[166.88,27.1],[166.87,27.08],[166.86,27.06],[166.84,27.03],[166.83,27.02],[166.82,27.01],[166.81,26.99],[166.79,26.96],[166.79,26.95],[166.77,26.93],[166.76,26.9],[166.75,26.89],[166.73,26.87],[166.72,26.85],[166.71,26.83],[166.7,26.81],[166.69,26.79],[166.68,26.78],[166.67,26.75],[166.66,26.74],[166.65,26.71],[166.64,26.69],[166.64,26.68],[166.62,26.65],[166.61,26.62],[166.61,26.6],[166.6,26.59],[166.59,26.57],[166.58,26.54],[166.57,26.52],[166.56,26.49],[166.56,26.47],[166.55,26.45],[166.54,26.42],[166.54,26.4],[166.53,26.38],[166.52,26.35],[166.52,26.33],[166.51,26.3],[166.5,26.28],[166.5,26.26],[166.49,26.23],[166.49,26.21],[166.48,26.18],[166.48,26.15],[166.47,26.13],[166.47,26.1],[166.47,26.08],[166.46,26.05],[166.46,26.02],[166.46,25.99],[166.46,25.96],[166.46,25.93],[166.46,25.9],[166.46,25.87],[166.46,25.84],[166.46,25.81],[166.46,25.78],[166.46,25.75],[166.46,25.72],[166.46,25.69],[166.46,25.66],[166.46,25.63],[166.46,25.6],[166.46,25.57],[166.47,25.55],[166.47,25.52],[166.47,25.5],[166.48,25.47],[166.48,25.44],[166.49,25.42],[166.49,25.39],[166.5,25.37],[166.5,25.34],[166.51,25.32],[166.52,25.3],[166.52,25.27],[166.53,25.25],[166.54,25.22],[166.54,25.2],[166.55,25.18],[166.56,25.16],[166.56,25.13],[166.57,25.11],[166.58,25.09],[166.59,25.07],[166.6,25.04],[166.61,25.02],[166.62,25.0],[166.63,24.98],[166.64,24.96],[166.65,24.94],[166.66,24.92],[166.67,24.9],[166.68,24.88],[166.69,24.86],[166.7,24.84],[166.71,24.82],[166.72,24.8],[166.73,24.78],[166.74,24.76],[166.75,24.74],[166.76,24.72],[166.77,24.7],[166.78,24.68],[166.8,24.65],[166.8,24.65],[166.82,24.63],[166.83,24.6],[166.85,24.58],[166.85,24.58],[166.87,24.56],[166.88,24.54],[166.9,24.52],[166.91,24.5],[166.92,24.49],[166.93,24.47],[166.94,24.45],[166.96,24.44],[166.97,24.42],[166.99,24.41],[167.0,24.39],[167.02,24.38],[167.03,24.36],[167.06,24.34],[167.06,24.33],[167.08,24.32],[167.09,24.3],[167.12,24.28],[167.12,24.27],[167.15,24.25],[167.15,24.24],[167.17,24.23],[167.18,24.21],[167.2,24.2],[167.21,24.18],[167.24,24.16],[167.24,24.15],[167.27,24.13],[167.27,24.12],[167.29,24.11],[167.31,24.09],[167.33,24.07],[167.35,24.06],[167.37,24.04],[167.38,24.03],[167.4,24.02],[167.43,24.0],[167.45,23.99],[167.45,23.98],[167.47,23.97],[167.49,23.96],[167.51,23.95],[167.54,23.93],[167.55,23.92],[167.56,23.91],[167.58,23.9],[167.6,23.89],[167.62,23.88],[167.64,23.86],[167.66,23.85],[167.69,23.84],[167.7,23.83],[167.72,23.82],[167.74,23.81],[167.76,23.8],[167.78,23.79],[167.8,23.78],[167.82,23.77],[167.84,23.76],[167.86,23.75],[167.88,23.74],[167.91,23.73],[167.93,23.72],[167.94,23.72],[167.96,23.71],[167.99,23.7],[168.01,23.69],[168.03,23.68],[168.05,23.67],[168.08,23.66],[168.1,23.65],[168.13,23.64],[168.15,23.64],[168.17,23.63],[168.2,23.62],[168.21,23.62],[168.24,23.61],[168.27,23.6],[168.29,23.6],[168.31,23.59],[168.33,23.59],[168.36,23.58],[168.39,23.57],[168.41,23.57],[168.44,23.56],[168.45,23.56],[168.49,23.55],[168.51,23.55],[168.54,23.54],[168.55,23.54],[168.59,23.53],[168.62,23.53],[168.65,23.53],[168.67,23.53],[168.7,23.52],[168.71,23.52],[168.75,23.52],[168.78,23.51],[168.8,23.51],[168.83,23.5],[168.86,23.5],[168.89,23.5],[168.92,23.5],[168.95,23.5],[168.98,23.5],[169.01,23.5],[169.04,23.5],[169.07,23.5],[169.1,23.5],[169.13,23.5],[169.16,23.5],[169.19,23.5],[169.22,23.5],[169.25,23.5],[169.28,23.5],[169.31,23.5],[169.34,23.5],[169.37,23.5],[169.4,23.5],[169.43,23.5],[169.46,23.5],[169.48,23.49],[169.51,23.49],[169.54,23.49],[169.55,23.48],[169.59,23.48],[169.6,23.47],[169.64,23.47],[169.67,23.47],[169.7,23.47],[169.73,23.47],[169.76,23.47],[169.79,23.47],[169.82,23.47],[169.85,23.47],[169.88,23.47],[169.91,23.47],[169.94,23.47],[169.97,23.47],[170.0,23.47],[170.03,23.47],[170.06,23.47],[170.09,23.47],[170.13,23.47],[170.16,23.47],[170.19,23.47],[170.22,23.47],[170.25,23.47],[170.28,23.47],[170.31,23.47],[170.34,23.47],[170.37,23.47],[170.4,23.47],[170.43,23.47],[170.46,23.47],[170.49,23.47],[170.52,23.47],[170.55,23.47],[170.58,23.47],[170.61,23.47],[170.64,23.47],[170.67,23.47],[170.7,23.47],[170.73,23.47],[170.76,23.47],[170.77,23.47],[170.81,23.46],[170.84,23.46],[170.86,23.45],[170.89,23.45],[170.9,23.45],[170.94,23.44],[170.97,23.44],[171.0,23.44],[171.03,23.44],[171.06,23.44],[171.09,23.44],[171.12,23.44],[171.15,23.44],[171.18,23.44],[171.21,23.44],[171.24,23.44],[171.27,23.44],[171.3,23.44],[171.33,23.44],[171.36,23.44],[171.39,23.44],[171.42,23.44],[171.45,23.44],[171.48,23.44],[171.51,23.44],[171.54,23.44],[171.57,23.44],[171.6,23.44],[171.63,23.44],[171.66,23.44],[171.69,23.44],[171.72,23.44],[171.75,23.44],[171.78,23.44],[171.81,23.44],[171.84,23.44],[171.88,23.44],[171.91,23.44],[171.94,23.44],[171.97,23.44],[172.0,23.44],[172.03,23.44],[172.06,23.44],[172.09,23.44],[172.12,23.44],[172.15,23.44],[172.18,23.44],[172.21,23.44],[172.24,23.44],[172.27,23.44],[172.3,23.44],[172.33,23.44],[172.34,23.44],[172.38,23.43],[172.41,23.43],[172.43,23.42],[172.45,23.42],[172.49,23.42],[172.51,23.41],[172.54,23.41],[172.57,23.41],[172.6,23.41],[172.63,23.41],[172.66,23.41],[172.69,23.41],[172.72,23.41],[172.75,23.41],[172.78,23.41],[172.81,23.41],[172.84,23.41],[172.87,23.41],[172.9,23.41],[172.93,23.41],[172.96,23.41],[172.99,23.41],[173.02,23.41],[173.05,23.41],[173.08,23.41],[173.11,23.41],[173.14,23.41],[173.17,23.41],[173.2,23.41],[173.23,23.41],[173.26,23.41],[173.29,23.41],[173.32,23.41],[173.35,23.41],[173.38,23.41],[173.41,23.41],[173.44,23.41],[173.47,23.41],[173.5,23.4],[173.52,23.4],[173.55,23.39],[173.58,23.39],[173.59,23.39],[173.63,23.38],[173.66,23.38],[173.69,23.38],[173.72,23.38],[173.75,23.38],[173.78,23.38],[173.81,23.38],[173.84,23.38],[173.87,23.38],[173.9,23.38],[173.93,23.38],[173.96,23.38],[173.99,23.38],[174.02,23.38],[174.05,23.38],[174.08,23.38],[174.11,23.38],[174.14,23.38],[174.17,23.38],[174.2,23.38],[174.22,23.38],[174.25,23.37],[174.27,23.37],[174.3,23.36],[174.33,23.36],[174.36,23.36],[174.38,23.35],[174.41,23.35],[174.44,23.35],[174.47,23.35],[174.5,23.35],[174.53,23.35],[174.56,23.35],[174.59,23.35],[174.62,23.35],[174.65,23.35],[174.68,23.35],[174.71,23.35],[174.74,23.35],[174.77,23.35],[174.8,23.35],[174.83,23.34],[174.85,23.34],[174.88,23.33],[174.9,23.33],[174.93,23.33],[174.96,23.32],[174.98,23.32],[175.01,23.32],[175.04,23.32],[175.07,23.32],[175.1,23.32],[175.13,23.32],[175.16,23.32],[175.19,23.32],[175.22,23.32],[175.25,23.32],[175.28,23.31],[175.3,23.31],[175.32,23.31],[175.36,23.3],[175.38,23.3],[175.41,23.29],[175.44,23.29],[175.47,23.29],[175.48,23.29],[175.53,23.29],[175.56,23.29],[175.58,23.29],[175.61,23.29],[175.64,23.28],[175.65,23.28],[175.69,23.27],[175.72,23.27],[175.74,23.27],[175.77,23.26],[175.8,23.26],[175.83,23.26],[175.86,23.26],[175.89,23.26],[175.9,23.26],[175.94,23.25],[175.97,23.25],[176.0,23.25],[176.01,23.25],[176.05,23.24],[176.08,23.23],[176.1,23.23],[176.12,23.23],[176.16,23.23],[176.19,23.22],[176.21,23.22],[176.24,23.22],[176.27,23.21],[176.29,23.21],[176.32,23.2],[176.34,23.2],[176.37,23.2],[176.39,23.2],[176.43,23.19],[176.45,23.19],[176.48,23.19],[176.51,23.18],[176.53,23.18],[176.56,23.17],[176.59,23.17],[176.61,23.17],[176.64,23.16],[176.67,23.16],[176.68,23.16],[176.72,23.15],[176.74,23.15],[176.77,23.14],[176.8,23.14],[176.82,23.14],[176.85,23.13],[176.88,23.13],[176.89,23.13],[176.93,23.12],[176.95,23.12],[176.97,23.12],[176.99,23.11],[177.02,23.11],[177.05,23.1],[177.08,23.1],[177.1,23.09],[177.14,23.09],[177.16,23.08],[177.19,23.08],[177.21,23.08],[177.24,23.07],[177.25,23.07],[177.29,23.06],[177.32,23.06],[177.34,23.05],[177.37,23.05],[177.39,23.04],[177.42,23.04],[177.45,23.04],[177.47,23.03],[177.5,23.03],[177.52,23.02],[177.55,23.02],[177.57,23.01],[177.6,23.01],[177.62,23.0],[177.65,23.0],[177.66,22.99],[177.7,22.99],[177.73,22.98],[177.75,22.98],[177.78,22.98],[177.8,22.97],[177.83,22.97],[177.84,22.96],[177.88,22.96],[177.9,22.95],[177.93,22.95],[177.95,22.94],[177.98,22.94],[178.01,22.93],[178.02,22.93],[178.06,22.92],[178.08,22.92],[178.11,22.91],[178.12,22.91],[178.16,22.9],[178.18,22.9],[178.21,22.89],[178.24,22.89],[178.26,22.89],[178.27,22.88],[178.3,22.88],[178.34,22.87],[178.36,22.87],[178.37,22.86],[178.41,22.86],[178.44,22.85],[178.45,22.85],[178.49,22.84],[178.5,22.84],[178.54,22.83],[178.56,22.83],[178.59,22.82],[178.61,22.82],[178.64,22.81],[178.66,22.81],[178.69,22.8],[178.71,22.8],[178.73,22.79],[178.76,22.78],[178.79,22.78],[178.81,22.77],[178.84,22.77],[178.87,22.76],[178.88,22.76],[178.92,22.75],[178.94,22.75],[178.97,22.74],[178.98,22.74],[179.02,22.73],[179.03,22.73],[179.07,22.72],[179.09,22.72],[179.1,22.71],[179.13,22.71],[179.15,22.7],[179.19,22.69],[179.2,22.69],[179.24,22.68],[179.26,22.68],[179.27,22.68],[179.31,22.67],[179.34,22.66],[179.36,22.66],[179.38,22.66],[179.41,22.65],[179.44,22.64],[179.46,22.64],[179.49,22.63],[179.51,22.63],[179.54,22.62],[179.56,22.62],[179.58,22.62],[179.6,22.61],[179.64,22.6],[179.66,22.6],[179.69,22.59],[179.71,22.59],[179.73,22.59],[179.77,22.58],[179.78,22.58],[179.8,22.57],[179.84,22.56],[179.87,22.56],[179.89,22.55],[179.9,22.55],[179.94,22.54],[179.97,22.54],[179.99,22.53],[180.0,22.53],[180.0,25.68]]],[[[-171.62,23.89],[-171.65,23.89],[-171.68,23.89],[-171.71,23.9],[-171.72,23.9],[-171.76,23.9],[-171.79,23.91],[-171.81,23.91],[-171.84,23.92],[-171.87,23.92],[-171.89,23.92],[-171.92,23.92],[-171.95,23.92],[-171.98,23.92],[-172.01,23.92],[-172.04,23.93],[-172.07,23.93],[-172.1,23.93],[-172.12,23.93],[-172.15,23.94],[-172.17,23.94],[-172.2,23.95],[-172.23,23.95],[-172.26,23.95],[-172.28,23.95],[-172.31,23.95],[-172.34,23.95],[-172.37,23.95],[-172.4,23.96],[-172.43,23.96],[-172.46,23.96],[-172.47,23.96],[-172.51,23.97],[-172.54,23.97],[-172.56,23.98],[-172.59,23.98],[-172.62,23.98],[-172.65,23.98],[-172.68,23.98],[-172.71,23.98],[-172.74,23.99],[-172.76,23.99],[-172.79,23.99],[-172.82,23.99],[-172.83,24.0],[-172.87,24.0],[-172.89,24.01],[-172.92,24.01],[-172.94,24.01],[-172.98,24.01],[-173.01,24.02],[-173.04,24.02],[-173.05,24.02],[-173.09,24.02],[-173.11,24.03],[-173.14,24.03],[-173.17,24.04],[-173.19,24.04],[-173.22,24.04],[-173.25,24.04],[-173.28,24.05],[-173.31,24.05],[-173.33,24.05],[-173.36,24.05],[-173.39,24.06],[-173.4,24.06],[-173.44,24.07],[-173.46,24.07],[-173.49,24.07],[-173.52,24.07],[-173.55,24.08],[-173.58,24.08],[-173.61,24.08],[-173.63,24.09],[-173.66,24.09],[-173.68,24.09],[-173.71,24.1],[-173.74,24.1],[-173.76,24.1],[-173.78,24.1],[-173.82,24.11],[-173.85,24.11],[-173.87,24.12],[-173.9,24.12],[-173.92,24.12],[-173.95,24.13],[-173.98,24.13],[-174.01,24.13],[-174.03,24.14],[-174.06,24.14],[-174.09,24.14],[-174.11,24.15],[-174.14,24.15],[-174.17,24.15],[-174.19,24.16],[-174.22,24.16],[-174.25,24.16],[-174.27,24.17],[-174.3,24.17],[-174.33,24.17],[-174.36,24.18],[-174.38,24.18],[-174.41,24.18],[-174.43,24.19],[-174.45,24.19],[-174.49,24.19],[-174.52,24.2],[-174.54,24.2],[-174.57,24.2],[-174.6,24.21],[-174.62,24.21],[-174.64,24.21],[-174.67,24.22],[-174.7,24.22],[-174.73,24.22],[-174.76,24.23],[-174.79,24.23],[-174.81,24.23],[-174.84,24.24],[-174.86,24.24],[-174.89,24.25],[-174.92,24.25],[-174.94,24.25],[-174.97,24.26],[-174.98,24.26],[-175.02,24.26],[-175.04,24.26],[-175.08,24.27],[-175.1,24.28],[-175.13,24.28],[-175.15,24.28],[-175.18,24.29],[-175.21,24.29],[-175.23,24.29],[-175.26,24.3],[-175.27,24.3],[-175.31,24.31],[-175.32,24.31],[-175.36,24.31],[-175.39,24.32],[-175.42,24.32],[-175.44,24.33],[-175.47,24.33],[-175.48,24.33],[-175.52,24.34],[-175.54,24.34],[-175.57,24.35],[-175.58,24.35],[-175.62,24.36],[-175.64,24.36],[-175.67,24.37],[-175.7,24.37],[-175.73,24.37],[-175.75,24.38],[-175.77,24.38],[-175.8,24.39],[-175.83,24.39],[-175.85,24.4],[-175.88,24.4],[-175.91,24.41],[-175.93,24.41],[-175.96,24.42],[-175.98,24.42],[-176.01,24.43],[-176.02,24.43],[-176.06,24.44],[-176.08,24.44],[-176.11,24.45],[-176.12,24.45],[-176.16,24.46],[-176.18,24.46],[-176.21,24.47],[-176.22,24.47],[-176.26,24.48],[-176.28,24.48],[-176.29,24.49],[-176.33,24.49],[-176.36,24.5],[-176.38,24.5],[-176.41,24.51],[-176.43,24.51],[-176.44,24.52],[-176.47,24.52],[-176.51,24.53],[-176.53,24.54],[-176.55,24.54],[-176.57,24.55],[-176.6,24.55],[-176.62,24.56],[-176.65,24.56],[-176.67,24.57],[-176.69,24.57],[-176.72,24.58],[-176.75,24.59],[-176.78,24.59],[-176.8,24.6],[-176.83,24.6],[-176.84,24.61],[-176.87,24.62],[-176.9,24.62],[-176.91,24.62],[-176.95,24.63],[-176.97,24.64],[-176.99,24.65],[-177.02,24.65],[-177.03,24.66],[-177.07,24.66],[-177.09,24.67],[-177.1,24.68],[-177.13,24.69],[-177.15,24.69],[-177.18,24.7],[-177.2,24.71],[-177.21,24.71],[-177.24,24.72],[-177.27,24.73],[-177.28,24.74],[-177.3,24.74],[-177.34,24.75],[-177.36,24.76],[-177.38,24.77],[-177.41,24.78],[-177.43,24.78],[-177.45,24.79],[-177.46,24.8],[-177.5,24.81],[-177.52,24.82],[-177.53,24.82],[-177.56,24.83],[-177.59,24.84],[-177.61,24.85],[-177.63,24.85],[-177.64,24.86],[-177.67,24.86],[-177.69,24.87],[-177.72,24.88],[-177.75,24.89],[-177.76,24.89],[-177.78,24.9],[-177.81,24.91],[-177.84,24.92],[-177.85,24.92],[-177.87,24.93],[-177.9,24.94],[-177.92,24.95],[-177.95,24.96],[-177.97,24.97],[-177.99,24.97],[-178.01,24.98],[-178.04,24.99],[-178.06,25.0],[-178.07,25.0],[-178.1,25.01],[-178.13,25.02],[-178.15,25.03],[-178.18,25.03],[-178.19,25.04],[-178.22,25.05],[-178.23,25.05],[-178.25,25.06],[-178.28,25.07],[-178.3,25.08],[-178.33,25.09],[-178.34,25.09],[-178.37,25.11],[-178.39,25.11],[-178.41,25.12],[-178.44,25.13],[-178.46,25.14],[-178.48,25.15],[-178.51,25.15],[-178.52,25.16],[-178.55,25.17],[-178.58,25.18],[-178.59,25.18],[-178.62,25.19],[-178.64,25.2],[-178.65,25.2],[-178.68,25.21],[-178.7,25.22],[-178.73,25.23],[-178.74,25.24],[-178.77,25.24],[-178.79,25.25],[-178.81,25.26],[-178.84,25.27],[-178.86,25.28],[-178.88,25.29],[-178.91,25.3],[-178.93,25.31],[-178.94,25.31],[-178.96,25.32],[-178.99,25.33],[-179.02,25.34],[-179.03,25.34],[-179.05,25.35],[-179.09,25.36],[-179.11,25.37],[-179.13,25.37],[-179.14,25.38],[-179.18,25.39],[-179.19,25.4],[-179.21,25.4],[-179.24,25.42],[-179.26,25.43],[-179.27,25.43],[-179.31,25.44],[-179.32,25.45],[-179.34,25.45],[-179.36,25.46],[-179.4,25.47],[-179.42,25.48],[-179.44,25.49],[-179.47,25.5],[-179.49,25.5],[-179.5,25.51],[-179.52,25.51],[-179.56,25.53],[-179.57,25.53],[-179.6,25.54],[-179.62,25.55],[-179.63,25.55],[-179.66,25.56],[-179.68,25.57],[-179.7,25.58],[-179.72,25.59],[-179.75,25.6],[-179.78,25.61],[-179.79,25.61],[-179.82,25.62],[-179.84,25.63],[-179.85,25.63],[-179.88,25.64],[-179.91,25.65],[-179.92,25.66],[-179.94,25.67],[-179.97,25.67],[-179.99,25.68],[-180.0,25.68],[-180.0,22.53],[-179.98,22.53],[-179.97,22.53],[-179.93,22.52],[-179.91,22.51],[-179.88,22.51],[-179.86,22.5],[-179.84,22.49],[-179.81,22.49],[-179.79,22.48],[-179.76,22.48],[-179.74,22.47],[-179.71,22.47],[-179.69,22.46],[-179.67,22.46],[-179.64,22.45],[-179.61,22.45],[-179.58,22.44],[-179.56,22.44],[-179.53,22.44],[-179.51,22.43],[-179.48,22.43],[-179.46,22.42],[-179.43,22.42],[-179.41,22.41],[-179.38,22.41],[-179.35,22.4],[-179.33,22.4],[-179.3,22.39],[-179.29,22.39],[-179.25,22.38],[-179.23,22.38],[-179.2,22.37],[-179.18,22.37],[-179.17,22.36],[-179.14,22.36],[-179.12,22.35],[-179.09,22.35],[-179.05,22.34],[-179.03,22.34],[-179.0,22.33],[-178.98,22.33],[-178.95,22.32],[-178.93,22.32],[-178.91,22.31],[-178.88,22.31],[-178.85,22.3],[-178.83,22.3],[-178.8,22.29],[-178.77,22.29],[-178.76,22.29],[-178.72,22.28],[-178.71,22.28],[-178.67,22.27],[-178.64,22.27],[-178.62,22.26],[-178.59,22.26],[-178.57,22.26],[-178.54,22.25],[-178.53,22.25],[-178.49,22.24],[-178.46,22.24],[-178.44,22.23],[-178.41,22.23],[-178.39,22.22],[-178.36,22.22],[-178.33,22.22],[-178.31,22.21],[-178.28,22.21],[-178.26,22.2],[-178.23,22.2],[-178.22,22.2],[-178.19,22.19],[-178.15,22.19],[-178.13,22.18],[-178.1,22.18],[-178.07,22.17],[-178.05,22.17],[-178.02,22.17],[-177.99,22.17],[-177.96,22.16],[-177.94,22.16],[-177.91,22.16],[-177.9,22.15],[-177.87,22.15],[-177.83,22.14],[-177.8,22.14],[-177.78,22.14],[-177.75,22.14],[-177.72,22.13],[-177.7,22.13],[-177.67,22.13],[-177.66,22.12],[-177.62,22.12],[-177.59,22.11],[-177.56,22.11],[-177.54,22.11],[-177.51,22.1],[-177.48,22.1],[-177.47,22.1],[-177.43,22.09],[-177.41,22.09],[-177.38,22.08],[-177.35,22.08],[-177.33,22.08],[-177.3,22.07],[-177.27,22.07],[-177.25,22.06],[-177.22,22.06],[-177.2,22.06],[-177.17,22.05],[-177.14,22.05],[-177.11,22.05],[-177.09,22.04],[-177.06,22.04],[-177.04,22.03],[-177.01,22.03],[-176.98,22.03],[-176.96,22.02],[-176.93,22.02],[-176.9,22.02],[-176.87,22.02],[-176.85,22.01],[-176.82,22.01],[-176.8,22.0],[-176.77,22.0],[-176.76,22.0],[-176.72,21.99],[-176.69,21.99],[-176.66,21.99],[-176.63,21.99],[-176.6,21.99],[-176.57,21.99],[-176.55,21.98],[-176.53,21.98],[-176.49,21.97],[-176.47,21.97],[-176.44,21.97],[-176.41,21.96],[-176.39,21.96],[-176.36,21.96],[-176.33,21.96],[-176.3,21.96],[-176.27,21.96],[-176.24,21.96],[-176.21,21.96],[-176.18,21.95],[-176.16,21.95],[-176.14,21.95],[-176.11,21.94],[-176.08,21.94],[-176.05,21.93],[-176.02,21.93],[-175.99,21.93],[-175.97,21.93],[-175.94,21.93],[-175.91,21.93],[-175.87,21.93],[-175.84,21.93],[-175.81,21.93],[-175.78,21.93],[-175.75,21.93],[-175.72,21.93],[-175.7,21.93],[-175.67,21.92],[-175.65,21.92],[-175.63,21.92],[-175.59,21.91],[-175.56,21.91],[-175.54,21.91],[-175.51,21.9],[-175.48,21.9],[-175.45,21.9],[-175.42,21.9],[-175.39,21.9],[-175.36,21.9],[-175.33,21.9],[-175.3,21.9],[-175.27,21.9],[-175.24,21.9],[-175.21,21.9],[-175.18,21.9],[-175.15,21.9],[-175.12,21.9],[-175.09,21.9],[-175.06,21.9],[-175.03,21.9],[-175.0,21.9],[-174.97,21.9],[-174.94,21.9],[-174.91,21.9],[-174.88,21.9],[-174.85,21.9],[-174.82,21.9],[-174.79,21.9],[-174.76,21.9],[-174.73,21.9],[-174.7,21.9],[-174.67,21.9],[-174.64,21.9],[-174.61,21.9],[-174.58,21.9],[-174.55,21.9],[-174.52,21.9],[-174.49,21.9],[-174.46,21.9],[-174.43,21.9],[-174.4,21.9],[-174.37,21.9],[-174.34,21.9],[-174.31,21.9],[-174.28,21.9],[-174.25,21.9],[-174.22,21.9],[-174.19,21.9],[-174.16,21.9],[-174.12,21.9],[-174.09,21.9],[-174.06,21.9],[-174.03,21.9],[-174.0,21.9],[-173.97,21.9],[-173.94,21.9],[-173.91,21.9],[-173.88,21.9],[-173.85,21.9],[-173.82,21.9],[-173.79,21.9],[-173.76,21.9],[-173.73,21.9],[-173.7,21.9],[-173.67,21.9],[-173.64,21.9],[-173.61,21.9],[-173.58,21.9],[-173.55,21.9],[-173.52,21.9],[-173.49,21.9],[-173.46,21.9],[-173.43,21.9],[-173.4,21.9],[-173.37,21.9],[-173.34,21.9],[-173.31,21.9],[-173.28,21.9],[-173.25,21.9],[-173.22,21.9],[-173.19,21.9],[-173.16,21.9],[-173.13,21.9],[-173.1,21.9],[-173.07,21.9],[-173.04,21.9],[-173.01,21.9],[-172.98,21.9],[-172.95,21.9],[-172.92,21.9],[-172.89,21.9],[-172.86,21.9],[-172.83,21.9],[-172.8,21.9],[-172.77,21.9],[-172.74,21.9],[-172.71,21.9],[-172.68,21.9],[-172.65,21.9],[-172.62,21.9],[-172.59,21.9],[-172.56,21.9],[-172.53,21.9],[-172.5,21.9],[-172.47,21.9],[-172.44,21.9],[-172.41,21.9],[-172.37,21.9],[-172.34,21.9],[-172.31,21.9],[-172.28,21.9],[-172.25,21.9],[-172.22,21.9],[-172.19,21.9],[-172.16,21.9],[-172.13,21.9],[-172.1,21.9],[-172.07,21.9],[-172.04,21.9],[-172.01,21.9],[-171.98,21.9],[-171.95,21.9],[-171.92,21.9],[-171.89,21.9],[-171.86,21.9],[-171.83,21.9],[-171.8,21.9],[-171.77,21.9],[-171.74,21.9],[-171.71,21.9],[-171.68,21.9],[-171.65,21.9],[-171.62,21.9],[-171.59,21.9],[-171.56,21.9],[-171.54,21.91],[-171.51,21.91],[-171.48,21.91],[-171.46,21.92],[-171.43,21.92],[-171.41,21.92],[-171.38,21.93],[-171.35,21.93],[-171.32,21.93],[-171.29,21.93],[-171.26,21.93],[-171.23,21.93],[-171.2,21.93],[-171.17,21.93],[-171.14,21.93],[-171.11,21.93],[-171.08,21.93],[-171.05,21.93],[-171.02,21.93],[-170.99,21.93],[-170.96,21.93],[-170.93,21.93],[-170.9,21.93],[-170.89,21.93],[-170.85,21.94],[-170.82,21.94],[-170.8,21.95],[-170.77,21.95],[-170.74,21.96],[-170.71,21.96],[-170.68,21.96],[-170.65,21.96],[-170.62,21.96],[-170.59,21.96],[-170.56,21.96],[-170.53,21.96],[-170.51,21.96],[-170.48,21.96],[-170.45,21.97],[-170.42,21.97],[-170.4,21.97],[-170.39,21.98],[-170.35,21.98],[-170.32,21.99],[-170.29,21.99],[-170.26,21.99],[-170.23,21.99],[-170.2,21.99],[-170.17,21.99],[-170.14,21.99],[-170.12,21.99],[-170.09,22.0],[-170.06,22.0],[-170.04,22.0],[-170.01,22.01],[-169.98,22.01],[-169.96,22.02],[-169.93,22.02],[-169.9,22.02],[-169.87,22.02],[-169.85,22.03],[-169.82,22.03],[-169.8,22.03],[-169.77,22.04],[-169.74,22.04],[-169.72,22.05],[-169.69,22.05],[-169.66,22.05],[-169.64,22.06],[-169.61,22.06],[-169.6,22.06],[-169.56,22.07],[-169.52,22.08],[-169.51,22.08],[-169.49,22.08],[-169.45,22.09],[-169.43,22.09],[-169.4,22.09],[-169.38,22.1],[-169.35,22.1],[-169.33,22.11],[-169.3,22.11],[-169.27,22.12],[-169.25,22.12],[-169.22,22.13],[-169.2,22.13],[-169.17,22.13],[-169.14,22.14],[-169.12,22.14],[-169.09,22.15],[-169.07,22.15],[-169.04,22.16],[-169.02,22.16],[-168.99,22.17],[-168.97,22.17],[-168.94,22.18],[-168.92,22.18],[-168.89,22.19],[-168.86,22.19],[-168.84,22.2],[-168.81,22.2],[-168.79,22.21],[-168.76,22.21],[-168.74,22.22],[-168.71,22.22],[-168.69,22.22],[-168.66,22.23],[-168.64,22.23],[-168.61,22.24],[-168.58,22.24],[-168.56,22.25],[-168.53,22.25],[-168.51,22.26],[-168.48,22.26],[-168.45,22.26],[-168.43,22.27],[-168.4,22.27],[-168.38,22.28],[-168.35,22.28],[-168.33,22.28],[-168.3,22.29],[-168.27,22.29],[-168.24,22.29],[-168.21,22.29],[-168.18,22.29],[-168.16,22.3],[-168.13,22.3],[-168.11,22.31],[-168.09,22.31],[-168.05,22.31],[-168.03,22.32],[-168.0,22.32],[-167.97,22.32],[-167.94,22.32],[-167.91,22.32],[-167.88,22.32],[-167.85,22.32],[-167.82,22.33],[-167.8,22.33],[-167.77,22.33],[-167.74,22.34],[-167.72,22.34],[-167.69,22.35],[-167.66,22.35],[-167.64,22.35],[-167.61,22.35],[-167.58,22.35],[-167.55,22.35],[-167.52,22.35],[-167.49,22.35],[-167.46,22.35],[-167.43,22.35],[-167.4,22.35],[-167.37,22.35],[-167.36,22.34],[-167.32,22.34],[-167.3,22.33],[-167.28,22.33],[-167.24,22.33],[-167.21,22.32],[-167.19,22.32],[-167.16,22.32],[-167.13,22.31],[-167.12,22.31],[-167.08,22.31],[-167.07,22.3],[-167.03,22.29],[-167.01,22.29],[-166.98,22.28],[-166.96,22.28],[-166.94,22.27],[-166.91,22.26],[-166.9,22.26],[-166.88,22.25],[-166.86,22.24],[-166.84,22.23],[-166.81,22.22],[-166.79,22.21],[-166.78,22.2],[-166.75,22.19],[-166.74,22.18],[-166.72,22.17],[-166.7,22.16],[-166.67,22.15],[-166.66,22.14],[-166.64,22.13],[-166.62,22.12],[-166.6,22.11],[-166.58,22.1],[-166.56,22.09],[-166.54,22.08],[-166.52,22.07],[-166.5,22.06],[-166.48,22.05],[-166.46,22.04],[-166.44,22.03],[-166.41,22.01],[-166.4,22.01],[-166.37,21.99],[-166.34,21.99],[-166.32,21.98],[-166.3,21.97],[-166.29,21.96],[-166.27,21.95],[-166.24,21.94],[-166.23,21.94],[-166.2,21.93],[-166.17,21.92],[-166.15,21.91],[-166.14,21.9],[-166.11,21.89],[-166.1,21.89],[-166.06,21.88],[-166.04,21.87],[-166.03,21.86],[-165.99,21.85],[-165.97,21.85],[-165.95,21.84],[-165.92,21.83],[-165.9,21.83],[-165.87,21.82],[-165.86,21.82],[-165.84,21.82],[-165.8,21.81],[-165.77,21.8],[-165.76,21.8],[-165.72,21.79],[-165.7,21.79],[-165.68,21.78],[-165.66,21.78],[-165.64,21.78],[-165.6,21.77],[-165.58,21.76],[-165.56,21.76],[-165.54,21.75],[-165.51,21.75],[-165.49,21.75],[-165.46,21.75],[-165.43,21.75],[-165.41,21.75],[-165.38,21.75],[-165.35,21.75],[-165.32,21.75],[-165.3,21.76],[-165.27,21.77],[-165.25,21.78],[-165.23,21.79],[-165.21,21.8],[-165.19,21.82],[-165.18,21.83],[-165.16,21.85],[-165.15,21.87],[-165.14,21.89],[-165.13,21.93],[-165.13,21.94],[-165.12,21.98],[-165.12,22.0],[-165.12,22.03],[-165.13,22.06],[-165.13,22.07],[-165.14,22.1],[-165.16,22.13],[-165.17,22.14],[-165.18,22.15],[-165.19,22.17],[-165.21,22.19],[-165.22,22.2],[-165.24,22.22],[-165.25,22.23],[-165.27,22.25],[-165.29,22.27],[-165.32,22.29],[-165.33,22.3],[-165.33,22.3],[-165.36,22.32],[-165.38,22.33],[-165.4,22.35],[-165.41,22.36],[-165.43,22.38],[-165.43,22.38],[-165.45,22.4],[-165.47,22.42],[-165.48,22.43],[-165.51,22.45],[-165.52,22.46],[-165.54,22.47],[-165.56,22.49],[-165.57,22.49],[-165.59,22.51],[-165.6,22.52],[-165.62,22.54],[-165.63,22.55],[-165.65,22.57],[-165.66,22.58],[-165.68,22.59],[-165.69,22.61],[-165.71,22.63],[-165.72,22.64],[-165.74,22.65],[-165.75,22.67],[-165.77,22.69],[-165.78,22.7],[-165.8,22.73],[-165.81,22.74],[-165.82,22.75],[-165.83,22.77],[-165.84,22.79],[-165.86,22.8],[-165.87,22.82],[-165.89,22.84],[-165.91,22.86],[-165.92,22.87],[-165.93,22.88],[-165.95,22.9],[-165.96,22.91],[-165.97,22.93],[-165.99,22.96],[-166.01,22.97],[-166.01,22.98],[-166.03,23.0],[-166.05,23.02],[-166.06,23.04],[-166.07,23.05],[-166.09,23.07],[-166.1,23.08],[-166.11,23.09],[-166.13,23.11],[-166.14,23.12],[-166.16,23.14],[-166.18,23.15],[-166.2,23.17],[-166.22,23.19],[-166.23,23.2],[-166.25,23.21],[-166.27,23.22],[-166.29,23.24],[-166.29,23.24],[-166.31,23.26],[-166.33,23.27],[-166.35,23.29],[-166.37,23.31],[-166.39,23.32],[-166.4,23.33],[-166.43,23.35],[-166.44,23.36],[-166.46,23.37],[-166.48,23.38],[-166.49,23.39],[-166.52,23.41],[-166.53,23.42],[-166.55,23.43],[-166.57,23.44],[-166.6,23.45],[-166.61,23.46],[-166.63,23.47],[-166.66,23.49],[-166.68,23.5],[-166.69,23.5],[-166.72,23.52],[-166.73,23.52],[-166.75,23.53],[-166.78,23.55],[-166.8,23.56],[-166.82,23.57],[-166.83,23.57],[-166.86,23.59],[-166.88,23.59],[-166.9,23.6],[-166.91,23.61],[-166.94,23.62],[-166.97,23.63],[-166.99,23.64],[-167.0,23.64],[-167.02,23.65],[-167.04,23.66],[-167.07,23.67],[-167.08,23.68],[-167.11,23.69],[-167.13,23.69],[-167.15,23.7],[-167.17,23.71],[-167.21,23.72],[-167.22,23.72],[-167.24,23.73],[-167.28,23.74],[-167.3,23.75],[-167.31,23.75],[-167.35,23.76],[-167.36,23.76],[-167.39,23.77],[-167.42,23.78],[-167.44,23.78],[-167.47,23.79],[-167.48,23.79],[-167.52,23.8],[-167.54,23.81],[-167.56,23.81],[-167.58,23.81],[-167.62,23.82],[-167.64,23.83],[-167.67,23.83],[-167.69,23.84],[-167.72,23.84],[-167.74,23.85],[-167.77,23.85],[-167.8,23.86],[-167.82,23.86],[-167.85,23.86],[-167.88,23.87],[-167.9,23.87],[-167.93,23.87],[-167.94,23.88],[-167.98,23.88],[-168.01,23.89],[-168.03,23.89],[-168.06,23.89],[-168.09,23.89],[-168.12,23.89],[-168.15,23.89],[-168.18,23.89],[-168.21,23.89],[-168.24,23.89],[-168.27,23.89],[-168.3,23.89],[-168.33,23.89],[-168.36,23.89],[-168.39,23.89],[-168.42,23.89],[-168.45,23.89],[-168.48,23.89],[-168.51,23.89],[-168.54,23.89],[-168.57,23.89],[-168.6,23.89],[-168.63,23.89],[-168.66,23.89],[-168.69,23.89],[-168.72,23.89],[-168.75,23.89],[-168.78,23.89],[-168.81,23.89],[-168.84,23.89],[-168.87,23.89],[-168.91,23.89],[-168.94,23.89],[-168.97,23.89],[-169.0,23.89],[-169.03,23.89],[-169.05,23.89],[-169.08,23.89],[-169.11,23.89],[-169.14,23.88],[-169.16,23.88],[-169.19,23.87],[-169.21,23.87],[-169.24,23.87],[-169.27,23.86],[-169.3,23.86],[-169.33,23.86],[-169.36,23.86],[-169.39,23.86],[-169.42,23.86],[-169.45,23.86],[-169.48,23.86],[-169.51,23.86],[-169.54,23.86],[-169.56,23.86],[-169.59,23.85],[-169.61,23.85],[-169.64,23.84],[-169.67,23.84],[-169.69,23.84],[-169.72,23.83],[-169.75,23.83],[-169.78,23.83],[-169.81,23.83],[-169.84,23.83],[-169.87,23.83],[-169.9,23.83],[-169.93,23.83],[-169.96,23.83],[-169.99,23.83],[-170.02,23.83],[-170.05,23.83],[-170.08,23.83],[-170.11,23.83],[-170.14,23.83],[-170.17,23.83],[-170.2,23.83],[-170.23,23.83],[-170.26,23.83],[-170.29,23.83],[-170.32,23.83],[-170.35,23.83],[-170.38,23.83],[-170.41,23.83],[-170.44,23.83],[-170.47,23.83],[-170.5,23.83],[-170.53,23.83],[-170.56,23.83],[-170.59,23.83],[-170.62,23.83],[-170.65,23.83],[-170.68,23.83],[-170.71,23.83],[-170.74,23.84],[-170.77,23.84],[-170.8,23.84],[-170.81,23.85],[-170.85,23.85],[-170.87,23.86],[-170.89,23.86],[-170.93,23.86],[-170.96,23.86],[-170.99,23.86],[-171.02,23.86],[-171.05,23.86],[-171.08,23.86],[-171.11,23.86],[-171.14,23.86],[-171.17,23.86],[-171.2,23.86],[-171.23,23.86],[-171.24,23.87],[-171.28,23.87],[-171.31,23.87],[-171.32,23.88],[-171.36,23.88],[-171.39,23.89],[-171.41,23.89],[-171.44,23.89],[-171.47,23.89],[-171.5,23.89],[-171.53,23.89],[-171.56,23.89],[-171.59,23.89],[-171.62,23.89]]]]},"properties":{"stormname":"Nolo","stormtype":"TS","basin":"EP","advisnum":"44A","stormnum":15,"binnumber":"CP2"}},{"type":"Feature","geometry":{"type":"Polygon","coordinates":[[[-121.51,14.69],[-121.5,14.69],[-121.48,14.69],[-121.47,14.69],[-121.45,14.69],[-121.43,14.69],[-121.41,14.69],[-121.39,14.69],[-121.37,14.69],[-121.35,14.69],[-121.33,14.69],[-121.31,14.69],[-121.3,14.7],[-121.29,14.7],[-121.27,14.7],[-121.25,14.71],[-121.24,14.71],[-121.22,14.72],[-121.21,14.73],[-121.21,14.73],[-121.19,14.74],[-121.17,14.75],[-121.16,14.75],[-121.15,14.76],[-121.15,14.77],[-121.13,14.78],[-121.12,14.79],[-121.11,14.8],[-121.1,14.81],[-121.09,14.82],[-121.08,14.83],[-121.06,14.84],[-121.06,14.85],[-121.05,14.86],[-121.04,14.87],[-121.03,14.89],[-121.02,14.9],[-121.02,14.91],[-121.01,14.92],[-121.01,14.93],[-121.0,14.94],[-120.99,14.96],[-120.98,14.99],[-120.98,15.0],[-120.98,15.01],[-120.97,15.03],[-120.97,15.05],[-120.97,15.07],[-120.97,15.08],[-120.97,15.11],[-120.97,15.13],[-120.97,15.14],[-120.97,15.16],[-120.98,15.17],[-120.98,15.19],[-120.98,15.21],[-120.99,15.22],[-121.0,15.25],[-121.0,15.25],[-121.0,15.26],[-121.02,15.29],[-121.02,15.29],[-121.03,15.31],[-121.03,15.32],[-121.04,15.33],[-121.06,15.35],[-121.06,15.36],[-121.07,15.36],[-121.08,15.37],[-121.09,15.39],[-121.1,15.4],[-121.11,15.4],[-121.12,15.41],[-121.13,15.42],[-121.14,15.43],[-121.15,15.44],[-121.17,15.45],[-121.18,15.46],[-121.19,15.46],[-121.21,15.47],[-121.22,15.47],[-121.23,15.48],[-121.25,15.49],[-121.26,15.49],[-121.28,15.5],[-121.29,15.5],[-121.31,15.5],[-121.33,15.51],[-121.34,15.51],[-121.36,15.51],[-121.38,15.51],[-121.41,15.51],[-121.43,15.51],[-121.45,15.51],[-121.47,15.51],[-121.49,15.51],[-121.51,15.51],[-121.52,15.51],[-121.54,15.51],[-121.56,15.51],[-121.58,15.51],[-121.6,15.51],[-121.62,15.51],[-121.64,15.51],[-121.66,15.51],[-121.68,15.51],[-121.7,15.51],[-121.72,15.51],[-121.74,15.51],[-121.76,15.51],[-121.78,15.51],[-121.8,15.51],[-121.82,15.51],[-121.84,15.51],[-121.86,15.51],[-121.88,15.51],[-121.89,15.51],[-121.91,15.51],[-121.93,15.51],[-121.94,15.51],[-121.96,15.51],[-121.98,15.51],[-122.0,15.51],[-122.02,15.5],[-122.04,15.5],[-122.06,15.5],[-122.07,15.5],[-122.09,15.49],[-122.11,15.49],[-122.13,15.49],[-122.15,15.49],[-122.17,15.49],[-122.19,15.49],[-122.21,15.49],[-122.23,15.49],[-122.25,15.49],[-122.26,15.49],[-122.28,15.49],[-122.3,15.49],[-122.32,15.49],[-122.34,15.49],[-122.36,15.49],[-122.38,15.49],[-122.4,15.49],[-122.42,15.49],[-122.44,15.49],[-122.46,15.49],[-122.48,15.49],[-122.5,15.49],[-122.52,15.49],[-122.54,15.49],[-122.56,15.49],[-122.58,15.49],[-122.6,15.49],[-122.62,15.49],[-122.63,15.49],[-122.65,15.49],[-122.67,15.49],[-122.68,15.49],[-122.7,15.49],[-122.72,15.49],[-122.74,15.49],[-122.78,15.48],[-122.78,15.48],[-122.79,15.48],[-122.82,15.48],[-122.83,15.47],[-122.85,15.47],[-122.86,15.47],[-122.88,15.47],[-122.9,15.47],[-122.93,15.47],[-122.95,15.47],[-122.97,15.47],[-122.99,15.47],[-123.0,15.47],[-123.02,15.47],[-123.04,15.47],[-123.06,15.47],[-123.08,15.47],[-123.1,15.47],[-123.12,15.47],[-123.14,15.47],[-123.16,15.47],[-123.18,15.47],[-123.2,15.47],[-123.22,15.47],[-123.24,15.47],[-123.26,15.47],[-123.28,15.47],[-123.3,15.47],[-123.31,15.47],[-123.33,15.46],[-123.34,15.46],[-123.36,15.46],[-123.38,15.45],[-123.39,15.45],[-123.41,15.44],[-123.42,15.44],[-123.44,15.43],[-123.45,15.42],[-123.46,15.42],[-123.47,15.41],[-123.49,15.39],[-123.5,15.38],[-123.51,15.37],[-123.52,15.35],[-123.53,15.35],[-123.54,15.33],[-123.55,15.32],[-123.55,15.3],[-123.56,15.29],[-123.56,15.27],[-123.57,15.25],[-123.57,15.24],[-123.57,15.22],[-123.58,15.2],[-123.58,15.19],[-123.57,15.17],[-123.57,15.15],[-123.57,15.15],[-123.56,15.12],[-123.56,15.1],[-123.55,15.09],[-123.55,15.08],[-123.54,15.08],[-123.53,15.05],[-123.52,15.05],[-123.51,15.03],[-123.51,15.02],[-123.5,15.01],[-123.48,15.0],[-123.48,15.0],[-123.46,14.99],[-123.45,14.98],[-123.43,14.97],[-123.42,14.96],[-123.4,14.95],[-123.39,14.95],[-123.37,14.95],[-123.36,14.94],[-123.35,14.94],[-123.32,14.94],[-123.31,14.93],[-123.29,14.93],[-123.28,14.93],[-123.26,14.93],[-123.24,14.92],[-123.23,14.92],[-123.2,14.92],[-123.19,14.92],[-123.17,14.92],[-123.15,14.91],[-123.13,14.91],[-123.12,14.91],[-123.11,14.91],[-123.09,14.9],[-123.07,14.9],[-123.05,14.9],[-123.04,14.9],[-123.01,14.89],[-123.01,14.89],[-122.99,14.89],[-122.96,14.89],[-122.95,14.88],[-122.94,14.88],[-122.91,14.88],[-122.9,14.88],[-122.88,14.88],[-122.86,14.87],[-122.85,14.87],[-122.83,14.87],[-122.82,14.87],[-122.79,14.86],[-122.78,14.86],[-122.76,14.86],[-122.74,14.86],[-122.72,14.85],[-122.71,14.85],[-122.69,14.85],[-122.67,14.85],[-122.65,14.85],[-122.64,14.84],[-122.62,14.84],[-122.61,14.84],[-122.58,14.84],[-122.57,14.83],[-122.55,14.83],[-122.54,14.83],[-122.52,14.83],[-122.51,14.83],[-122.49,14.83],[-122.46,14.82],[-122.44,14.82],[-122.43,14.82],[-122.41,14.82],[-122.4,14.81],[-122.38,14.81],[-122.37,14.81],[-122.34,14.81],[-122.33,14.8],[-122.31,14.8],[-122.3,14.8],[-122.28,14.8],[-122.26,14.79],[-122.25,14.79],[-122.22,14.79],[-122.21,14.79],[-122.19,14.79],[-122.17,14.78],[-122.15,14.78],[-122.14,14.78],[-122.13,14.78],[-122.1,14.77],[-122.09,14.77],[-122.07,14.77],[-122.06,14.77],[-122.03,14.76],[-122.02,14.76],[-122.01,14.76],[-121.98,14.76],[-121.97,14.75],[-121.95,14.75],[-121.94,14.75],[-121.91,14.75],[-121.9,14.75],[-121.88,14.74],[-121.86,14.74],[-121.85,14.74],[-121.84,14.74],[-121.81,14.73],[-121.8,14.73],[-121.78,14.73],[-121.77,14.73],[-121.74,14.73],[-121.72,14.72],[-121.71,14.72],[-121.7,14.72],[-121.68,14.72],[-121.66,14.71],[-121.64,14.71],[-121.63,14.71],[-121.61,14.71],[-121.59,14.71],[-121.57,14.7],[-121.55,14.7],[-121.55,14.7],[-121.52,14.69],[-121.51,14.69]]]},"properties":{"stormname":"Nineteen-E","stormtype":"TD","basin":"EP","advisnum":"9","stormnum":19,"binnumber":"EP4"}}]}